{"type": "FeatureCollection", "features": [{"type": "Feature", "properties": {"name": "Kaloum", "slug": "conakry-kaloum"}, "geometry": {"type": "Polygon", "coordinates": [[[-13.698858, 9.5210131], [-13.6984046, 9.5226955], [-13.6983539, 9.5228835], [-13.6983505, 9.5234493], [-13.6985348, 9.5235817], [-13.6988503, 9.5242045], [-13.6989619, 9.5242136], [-13.7010413, 9.5236269], [-13.7013942, 9.5234965], [-13.7031517, 9.5228141], [-13.7040641, 9.5224617], [-13.7046019, 9.5222685], [-13.704704, 9.5223616], [-13.7047053, 9.5224278], [-13.7047375, 9.5224291], [-13.7047939, 9.5226235], [-13.7047357, 9.5226393], [-13.7047679, 9.5227398], [-13.7047611, 9.5227542], [-13.7046178, 9.5228767], [-13.7046254, 9.5229645], [-13.7047452, 9.5231796], [-13.7047199, 9.5232233], [-13.7048913, 9.5234223], [-13.7050052, 9.5234864], [-13.7052533, 9.5234044], [-13.7055489, 9.5238694], [-13.7055865, 9.5238906], [-13.7056214, 9.5238906], [-13.7060693, 9.5244091], [-13.705954, 9.5244871], [-13.7061337, 9.5247146], [-13.7061652, 9.5247516], [-13.7061343, 9.5247794], [-13.7061638, 9.5248707], [-13.706084, 9.5248839], [-13.7061142, 9.5251054], [-13.7062235, 9.5250995], [-13.7063912, 9.5252688], [-13.7065253, 9.5253455], [-13.7066151, 9.5253451], [-13.7067207, 9.5253164], [-13.7067251, 9.5252297], [-13.7067496, 9.5252202], [-13.706772, 9.5252416], [-13.7068069, 9.525278], [-13.7068409, 9.5252585], [-13.7071583, 9.5255888], [-13.7074694, 9.5258772], [-13.7080193, 9.5262766], [-13.7086804, 9.5267257], [-13.709304, 9.5271204], [-13.7099639, 9.5274669], [-13.7108839, 9.5278664], [-13.7120019, 9.5282651], [-13.7130538, 9.5285383], [-13.7140733, 9.5287344], [-13.7151188, 9.5288536], [-13.7160498, 9.5288848], [-13.716837, 9.5288438], [-13.7168397, 9.5288782], [-13.7168236, 9.5289284], [-13.7168196, 9.5289456], [-13.7168263, 9.5289734], [-13.7168451, 9.5289734], [-13.7168692, 9.5289655], [-13.7169309, 9.5288887], [-13.7204835, 9.5235361], [-13.7205344, 9.5235044], [-13.72058, 9.5234991], [-13.7225582, 9.5241372], [-13.7225829, 9.5241615], [-13.7225878, 9.5242029], [-13.7219195, 9.5264135], [-13.721959, 9.5264718], [-13.722028, 9.5264524], [-13.7259784, 9.5135631], [-13.7263286, 9.5125903], [-13.7267774, 9.5117293], [-13.7279363, 9.5096621], [-13.7279215, 9.5095843], [-13.7278357, 9.5095763], [-13.726671, 9.5116675], [-13.7262107, 9.5125548], [-13.725841, 9.5135316], [-13.7227044, 9.5237081], [-13.7226561, 9.5239488], [-13.7226296, 9.5240028], [-13.7225951, 9.5240077], [-13.7206421, 9.5234143], [-13.7206353, 9.5233945], [-13.7206373, 9.5233738], [-13.7206525, 9.5233113], [-13.7206337, 9.5232743], [-13.7206069, 9.5232531], [-13.7205747, 9.5232716], [-13.7205103, 9.5233404], [-13.7204218, 9.5235017], [-13.7169135, 9.5287591], [-13.7160699, 9.5288008], [-13.7151329, 9.528757], [-13.7140923, 9.5286354], [-13.7130664, 9.5284457], [-13.7120209, 9.5281636], [-13.7109162, 9.5277599], [-13.7100346, 9.527373], [-13.7093836, 9.5270301], [-13.7087178, 9.5266483], [-13.7080461, 9.5262131], [-13.7075043, 9.5258005], [-13.7070563, 9.5253455], [-13.7069088, 9.5251861], [-13.7069814, 9.5251047], [-13.7068944, 9.5250046], [-13.7069282, 9.5249791], [-13.7068891, 9.5249265], [-13.7068589, 9.524933], [-13.7068002, 9.5248574], [-13.7067577, 9.5248987], [-13.7063093, 9.5244804], [-13.7062815, 9.5245131], [-13.7056743, 9.5238338], [-13.7054821, 9.5235592], [-13.7052509, 9.5231963], [-13.7051359, 9.5229008], [-13.7050797, 9.522761], [-13.7048308, 9.5221428], [-13.7045378, 9.5207719], [-13.7045324, 9.5206026], [-13.7046048, 9.52051], [-13.7047336, 9.5204359], [-13.7047604, 9.5203433], [-13.7047631, 9.5202216], [-13.7046719, 9.5200312], [-13.7045579, 9.5198209], [-13.7045504, 9.5197092], [-13.7045558, 9.519575], [-13.7045399, 9.5194075], [-13.7046357, 9.5193069], [-13.7048644, 9.5192028], [-13.704915, 9.5192811], [-13.7050488, 9.519351], [-13.705216, 9.5193116], [-13.7054569, 9.5191993], [-13.7059356, 9.5188805], [-13.7059917, 9.5187102], [-13.7059647, 9.5184992], [-13.7062211, 9.5182885], [-13.7064, 9.5183232], [-13.7065573, 9.518293], [-13.7068078, 9.5181931], [-13.7076996, 9.5177779], [-13.7078138, 9.5178047], [-13.7079116, 9.5178803], [-13.7086832, 9.5176531], [-13.7088574, 9.5177817], [-13.7093883, 9.5177172], [-13.7100655, 9.5175538], [-13.7103243, 9.5173962], [-13.7105367, 9.5173089], [-13.7109048, 9.5171474], [-13.7111274, 9.5176161], [-13.7112264, 9.5178318], [-13.7115893, 9.5184309], [-13.7123076, 9.5199467], [-13.7124499, 9.520104], [-13.7125883, 9.520434], [-13.7125613, 9.5208421], [-13.7124403, 9.5213104], [-13.7124647, 9.521453], [-13.7124851, 9.521494], [-13.7125334, 9.5215152], [-13.7126917, 9.521494], [-13.7127909, 9.5215813], [-13.7147918, 9.519764], [-13.7146993, 9.5196502], [-13.7147114, 9.5196106], [-13.7147623, 9.519563], [-13.7138075, 9.5185128], [-13.7137736, 9.5184517], [-13.7135875, 9.517378], [-13.7135956, 9.5173251], [-13.7136197, 9.5173198], [-13.714238, 9.5172378], [-13.7142916, 9.5172364], [-13.714301, 9.5172602], [-13.7143064, 9.5173356], [-13.714411, 9.5179176], [-13.7144941, 9.5178964], [-13.7144163, 9.5172166], [-13.7151352, 9.5170632], [-13.7151885, 9.51706], [-13.7152129, 9.5171134], [-13.7155804, 9.518317], [-13.7159184, 9.5186821], [-13.715964, 9.5186874], [-13.716023, 9.5186689], [-13.7192148, 9.5157855], [-13.7209368, 9.5130979], [-13.7222725, 9.5109684], [-13.7224013, 9.5107885], [-13.7225917, 9.5105028], [-13.7237324, 9.508734], [-13.7236648, 9.5086944], [-13.7231201, 9.5083759], [-13.7226279, 9.5080439], [-13.7225059, 9.5079672], [-13.7224334, 9.5079275], [-13.7223798, 9.5078945], [-13.7222055, 9.5077781], [-13.7213311, 9.5072649], [-13.7212868, 9.5072364], [-13.721146, 9.507122], [-13.7210039, 9.5070175], [-13.7209784, 9.5069924], [-13.7209113, 9.5069766], [-13.7208174, 9.5069884], [-13.7207852, 9.5069963], [-13.7207624, 9.5070056], [-13.7207262, 9.5069751], [-13.7206726, 9.5069514], [-13.7206243, 9.5069236], [-13.720564, 9.5068958], [-13.7205425, 9.5068826], [-13.7205271, 9.5068727], [-13.7204849, 9.5068535], [-13.7204352, 9.5068218], [-13.7203789, 9.506794], [-13.7203265, 9.5067742], [-13.7202773, 9.5067579], [-13.7196895, 9.5064712], [-13.719601, 9.5062967], [-13.7194374, 9.5060268], [-13.7192792, 9.5058522], [-13.7190968, 9.5057147], [-13.7189627, 9.5055639], [-13.7188849, 9.5053073], [-13.7188849, 9.5050427], [-13.7188956, 9.5048814], [-13.7189171, 9.5047491], [-13.7189198, 9.5045586], [-13.7188983, 9.504384], [-13.7187937, 9.5043206], [-13.7186837, 9.5042915], [-13.7185791, 9.5043761], [-13.7184953, 9.5043883], [-13.7184396, 9.5043682], [-13.7181237, 9.5041983], [-13.7180427, 9.5041883], [-13.7179139, 9.504228], [-13.7175963, 9.5044964], [-13.7172622, 9.5047597], [-13.7171712, 9.5048633], [-13.7169416, 9.504765], [-13.7168768, 9.5047464], [-13.7164038, 9.5045666], [-13.7160552, 9.5043629], [-13.715766, 9.5042245], [-13.7155831, 9.504084], [-13.7155627, 9.5040703], [-13.7154342, 9.5040345], [-13.7153121, 9.5040101], [-13.7150651, 9.5040595], [-13.7149088, 9.5042326], [-13.7147769, 9.5042392], [-13.7146617, 9.5042065], [-13.7145545, 9.5041187], [-13.7144525, 9.5039303], [-13.7143995, 9.5037922], [-13.7143847, 9.5035743], [-13.714425, 9.5034567], [-13.7145632, 9.5033585], [-13.7154832, 9.5026575], [-13.7161689, 9.5021351], [-13.7161048, 9.5020441], [-13.7154133, 9.5025641], [-13.7150306, 9.5020561], [-13.7149018, 9.5020429], [-13.7147757, 9.5020984], [-13.714529, 9.502281], [-13.7143305, 9.5024688], [-13.7141186, 9.5026301], [-13.7140355, 9.502609], [-13.7139925, 9.5025085], [-13.7139764, 9.5023861], [-13.7139604, 9.5022889], [-13.7140408, 9.5021381], [-13.7141454, 9.5020085], [-13.7142956, 9.5018154], [-13.7144619, 9.5016725], [-13.7146443, 9.5016011], [-13.7147543, 9.501572], [-13.7149286, 9.5016117], [-13.7149689, 9.501572], [-13.7150037, 9.50149], [-13.7150466, 9.5013101], [-13.7150785, 9.5010947], [-13.7151262, 9.5008636], [-13.7151556, 9.5006957], [-13.7150967, 9.5005998], [-13.7149729, 9.5005678], [-13.7148609, 9.5005881], [-13.7147023, 9.5007847], [-13.7144437, 9.5007944], [-13.7143616, 9.5008501], [-13.7143112, 9.5009475], [-13.7142366, 9.5009768], [-13.7141052, 9.5009635], [-13.7139376, 9.5009692], [-13.7137614, 9.5010331], [-13.7136975, 9.5010985], [-13.7136948, 9.5012149], [-13.7137994, 9.5012704], [-13.7137941, 9.5012995], [-13.7137646, 9.5013524], [-13.7136814, 9.5014847], [-13.7133354, 9.502064], [-13.713319, 9.5021228], [-13.7133166, 9.5021831], [-13.713381, 9.5022413], [-13.7133971, 9.5022862], [-13.7134159, 9.5023497], [-13.713322, 9.502619], [-13.713212, 9.5026936], [-13.7129438, 9.502736], [-13.7128177, 9.5027465], [-13.7124717, 9.5029952], [-13.7119079, 9.5033413], [-13.7115692, 9.5034621], [-13.7112162, 9.5034858], [-13.7109128, 9.5034393], [-13.7099842, 9.5032915], [-13.7098663, 9.5032651], [-13.709642, 9.5031751], [-13.709591, 9.5031777], [-13.7095562, 9.5031976], [-13.7093925, 9.5033629], [-13.709304, 9.5034383], [-13.7092612, 9.5034516], [-13.7088228, 9.5033629], [-13.7087734, 9.5033558], [-13.7082204, 9.5033021], [-13.7080783, 9.5033576], [-13.7079522, 9.503437], [-13.7078396, 9.503519], [-13.7075928, 9.5036777], [-13.7073933, 9.5038757], [-13.7071667, 9.5041045], [-13.7067747, 9.5041909], [-13.7067222, 9.5042103], [-13.7066379, 9.5042809], [-13.7065681, 9.5044872], [-13.7062705, 9.5046645], [-13.7057421, 9.5047094], [-13.705608, 9.504847], [-13.7055833, 9.5049167], [-13.7055194, 9.5050692], [-13.7054041, 9.505257], [-13.7053236, 9.5053073], [-13.7045887, 9.5055665], [-13.7041622, 9.5059316], [-13.7040228, 9.5060401], [-13.7036017, 9.5064104], [-13.7035453, 9.5065655], [-13.7034971, 9.5068575], [-13.7034505, 9.5069605], [-13.7030255, 9.507208], [-13.7029901, 9.5072675], [-13.702976, 9.5073497], [-13.7032381, 9.5078444], [-13.7033603, 9.5079183], [-13.7034246, 9.5080452], [-13.7034328, 9.508235], [-13.7034515, 9.5084183], [-13.7035801, 9.5088996], [-13.7034402, 9.5092064], [-13.7032549, 9.5093175], [-13.7029701, 9.5094312], [-13.7026793, 9.5095128], [-13.7025181, 9.5095238], [-13.7023939, 9.5095182], [-13.7021908, 9.5094605], [-13.7020621, 9.5094632], [-13.7020084, 9.509487], [-13.7019923, 9.5095518], [-13.7020487, 9.5100253], [-13.7020324, 9.5101347], [-13.7019732, 9.5102324], [-13.7017348, 9.5104657], [-13.7017214, 9.5105604], [-13.7017869, 9.510772], [-13.7016015, 9.5108324], [-13.7014444, 9.5108889], [-13.7007212, 9.5111773], [-13.7003017, 9.5112887], [-13.699952, 9.5113564], [-13.6997098, 9.511389], [-13.699514, 9.5114048], [-13.6989802, 9.5114789], [-13.6983392, 9.5115054], [-13.6973494, 9.5115424], [-13.6970302, 9.5115556], [-13.6967379, 9.5115318], [-13.696416, 9.5115371], [-13.6963302, 9.5115556], [-13.696298, 9.511635], [-13.6962941, 9.5117694], [-13.6963046, 9.5120129], [-13.6963404, 9.5122225], [-13.6963946, 9.5124021], [-13.696548, 9.5127022], [-13.6967869, 9.5130871], [-13.6969062, 9.5132406], [-13.6969632, 9.5133333], [-13.6970437, 9.5138624], [-13.6971885, 9.5140951], [-13.6973548, 9.5142909], [-13.6973843, 9.5143702], [-13.6972945, 9.514685], [-13.6969887, 9.5152432], [-13.6965931, 9.5155977], [-13.6964141, 9.515912], [-13.6959761, 9.5165553], [-13.6955363, 9.5171478], [-13.6953001, 9.517292], [-13.6950386, 9.517349], [-13.6946096, 9.5173079], [-13.6942676, 9.517333], [-13.6938804, 9.5174461], [-13.6933047, 9.5180102], [-13.6922808, 9.5193587], [-13.6919962, 9.5196518], [-13.6917635, 9.5198243], [-13.691553, 9.519908], [-13.6912456, 9.5199784], [-13.6901945, 9.5200169], [-13.689921, 9.5200722], [-13.6896035, 9.5202212], [-13.6892588, 9.5204842], [-13.6890253, 9.5207795], [-13.6889043, 9.5207092], [-13.6887124, 9.520526], [-13.6884099, 9.5205146], [-13.6882055, 9.520586], [-13.6880846, 9.5206526], [-13.6879573, 9.5207624], [-13.6879192, 9.5208479], [-13.6885775, 9.5213298], [-13.6885733, 9.521374], [-13.6885369, 9.5214423], [-13.6884978, 9.5214327], [-13.687799, 9.5209424], [-13.6874172, 9.521367], [-13.6861941, 9.5230309], [-13.6857864, 9.5233959], [-13.6856496, 9.5232597], [-13.6856309, 9.5232544], [-13.6856094, 9.523265], [-13.6854538, 9.5233906], [-13.6853533, 9.5234515], [-13.6850099, 9.5236234], [-13.685075, 9.5238154], [-13.6853109, 9.5243419], [-13.6858496, 9.5242169], [-13.6860925, 9.5241884], [-13.6862542, 9.5242075], [-13.6864159, 9.5242856], [-13.6867418, 9.5245115], [-13.6873432, 9.5247593], [-13.687748, 9.5250095], [-13.687961, 9.5252753], [-13.6883586, 9.5258648], [-13.691808, 9.523448], [-13.6925075, 9.5230715], [-13.6931443, 9.5227637], [-13.6972507, 9.5212472], [-13.698858, 9.5210131]]]}}, {"type": "Feature", "properties": {"name": "Dixinn", "slug": "conakry-dixinn"}, "geometry": {"type": "Polygon", "coordinates": [[[-13.6443734, 9.5688426], [-13.64513, 9.5692291], [-13.6455, 9.5693333], [-13.6469524, 9.5695759], [-13.6480076, 9.5695491], [-13.6484606, 9.5696058], [-13.6501892, 9.5701028], [-13.6507945, 9.5702934], [-13.6514818, 9.5706389], [-13.6518292, 9.5708583], [-13.6520798, 9.5711222], [-13.6521489, 9.5712147], [-13.6521944, 9.5711667], [-13.6523611, 9.5711111], [-13.6536944, 9.5710833], [-13.6537778, 9.5715], [-13.654, 9.5714722], [-13.6541667, 9.5713611], [-13.6541637, 9.5712586], [-13.6548056, 9.5706944], [-13.6550556, 9.5707222], [-13.6551944, 9.5706944], [-13.6553309, 9.5706215], [-13.6558611, 9.57025], [-13.6561111, 9.5701944], [-13.6562778, 9.5700833], [-13.6563426, 9.5700088], [-13.6564167, 9.5700278], [-13.656483, 9.5699768], [-13.6564594, 9.5698078], [-13.6569576, 9.5696027], [-13.6568679, 9.569891], [-13.6572392, 9.5698531], [-13.6574771, 9.5698856], [-13.6577436, 9.5699421], [-13.6580025, 9.5699555], [-13.6581667, 9.5699722], [-13.6591944, 9.5704167], [-13.6597778, 9.5707778], [-13.6602222, 9.5708611], [-13.6605833, 9.5708333], [-13.661, 9.5711111], [-13.6612778, 9.5711944], [-13.6615556, 9.5712222], [-13.6627204, 9.5720436], [-13.6627601, 9.5720062], [-13.6628884, 9.5720702], [-13.6629941, 9.5722456], [-13.6631644, 9.5726681], [-13.6633146, 9.5727369], [-13.6638296, 9.572758], [-13.6645897, 9.5727408], [-13.6653565, 9.5727655], [-13.6655198, 9.5726526], [-13.6655509, 9.5724231], [-13.6655442, 9.5719875], [-13.6655504, 9.5711153], [-13.6656374, 9.5709584], [-13.6658337, 9.570477], [-13.6659378, 9.5702897], [-13.6662144, 9.5699173], [-13.6664021, 9.5697586], [-13.6664772, 9.5696369], [-13.6665255, 9.56951], [-13.6665738, 9.5692667], [-13.6665523, 9.5691027], [-13.6665416, 9.5687377], [-13.666504, 9.5684732], [-13.6664289, 9.5679654], [-13.6664316, 9.5678993], [-13.6664155, 9.5678331], [-13.6663404, 9.5677723], [-13.6662466, 9.5677088], [-13.666209, 9.5675792], [-13.666209, 9.5674337], [-13.6662546, 9.5672354], [-13.6664098, 9.5670312], [-13.6664692, 9.5663652], [-13.6665764, 9.5661272], [-13.6666355, 9.5658706], [-13.666665, 9.5655717], [-13.6667025, 9.5654077], [-13.6667186, 9.5652914], [-13.6667293, 9.5652358], [-13.6667079, 9.5651935], [-13.6666596, 9.5651776], [-13.6666278, 9.5650557], [-13.6665765, 9.5646493], [-13.6664527, 9.5646411], [-13.6661516, 9.5647087], [-13.6659889, 9.5647545], [-13.6658536, 9.5647236], [-13.6658442, 9.5645852], [-13.6658147, 9.5643789], [-13.6658335, 9.564236], [-13.6659247, 9.5641911], [-13.6659891, 9.5639343], [-13.6658442, 9.5639015], [-13.6658318, 9.5638816], [-13.6658415, 9.5638433], [-13.6658677, 9.5637276], [-13.6658824, 9.5637024], [-13.6659032, 9.5636952], [-13.6660454, 9.5637388], [-13.666095, 9.563473], [-13.6659984, 9.5634439], [-13.6659864, 9.5634241], [-13.665981, 9.5633831], [-13.666034, 9.5631635], [-13.666042, 9.5631457], [-13.6660621, 9.5631377], [-13.6661366, 9.563141], [-13.6662224, 9.5628713], [-13.6662841, 9.5624772], [-13.6663015, 9.5623634], [-13.6663029, 9.5621003], [-13.6663243, 9.561935], [-13.6663485, 9.5617921], [-13.6663847, 9.5616043], [-13.6664155, 9.5614232], [-13.666437, 9.5611481], [-13.6665255, 9.5608836], [-13.6668956, 9.5604247], [-13.6673905, 9.5600729], [-13.6676359, 9.5599618], [-13.6681911, 9.5598137], [-13.6684164, 9.5596973], [-13.6685767, 9.559577], [-13.66908, 9.5593998], [-13.6695939, 9.559253], [-13.6699909, 9.5591154], [-13.670294, 9.5590176], [-13.6705381, 9.5589938], [-13.6708482, 9.558892], [-13.6711094, 9.5588192], [-13.6714661, 9.5586804], [-13.6717746, 9.5584912], [-13.6720321, 9.5582029], [-13.6723056, 9.5579966], [-13.6728689, 9.5578935], [-13.6730325, 9.5578776], [-13.6731693, 9.5577639], [-13.6731693, 9.5575999], [-13.6731157, 9.5574941], [-13.6728099, 9.557375], [-13.6725363, 9.5572878], [-13.6723083, 9.5572507], [-13.6717612, 9.5573142], [-13.6714551, 9.5574403], [-13.6711858, 9.5574042], [-13.6709618, 9.5574084], [-13.670701, 9.5574772], [-13.6705931, 9.5574853], [-13.6703388, 9.557349], [-13.6702333, 9.5572188], [-13.6702067, 9.5570833], [-13.6701635, 9.5568931], [-13.6701185, 9.5567084], [-13.6701542, 9.5565429], [-13.6702143, 9.5562665], [-13.6702462, 9.5559581], [-13.6703662, 9.5557864], [-13.6704633, 9.5557787], [-13.6705568, 9.5558039], [-13.6706373, 9.555796], [-13.6707553, 9.5557616], [-13.6708975, 9.5556532], [-13.6710048, 9.5552723], [-13.6710638, 9.5550898], [-13.6711255, 9.5549099], [-13.6713218, 9.554605], [-13.6715964, 9.5543511], [-13.6719741, 9.5540803], [-13.672356, 9.553862], [-13.6729896, 9.5536191], [-13.6731908, 9.5535927], [-13.6732659, 9.5536482], [-13.6734431, 9.5539488], [-13.6732089, 9.5541027], [-13.6732843, 9.5541818], [-13.6734333, 9.5541362], [-13.6735824, 9.5541852], [-13.6736065, 9.5542354], [-13.6735985, 9.5542778], [-13.6735314, 9.5544074], [-13.6735421, 9.5544655], [-13.6735716, 9.5544973], [-13.6736387, 9.5545211], [-13.6736709, 9.5544999], [-13.6737004, 9.5544603], [-13.6738945, 9.554197], [-13.6740663, 9.5542644], [-13.6742134, 9.5542274], [-13.6745601, 9.5539957], [-13.6747677, 9.5538799], [-13.6752312, 9.5536633], [-13.6757789, 9.5534437], [-13.6763279, 9.5532391], [-13.6767384, 9.552999], [-13.6770281, 9.5528348], [-13.6771366, 9.5527607], [-13.6771549, 9.5526627], [-13.6772432, 9.5525675], [-13.6772838, 9.5525392], [-13.6772811, 9.5525109], [-13.6771739, 9.5522993], [-13.6772533, 9.5522682], [-13.6773152, 9.5522404], [-13.677544, 9.5521565], [-13.677772, 9.5521062], [-13.6781019, 9.5518232], [-13.6783648, 9.5515296], [-13.6784801, 9.5512519], [-13.6785257, 9.5510852], [-13.6785874, 9.5510006], [-13.678751, 9.5509001], [-13.6787644, 9.5508498], [-13.6787456, 9.5507863], [-13.678692, 9.5506832], [-13.6786222, 9.5506409], [-13.6786357, 9.5505192], [-13.6786705, 9.550416], [-13.6788556, 9.5502679], [-13.6790702, 9.5502203], [-13.6791493, 9.5501957], [-13.6791855, 9.550133], [-13.6792794, 9.5498447], [-13.6792779, 9.5498114], [-13.6792579, 9.5497706], [-13.6791962, 9.5496966], [-13.6791506, 9.549604], [-13.6791426, 9.5494612], [-13.6791989, 9.5488951], [-13.6793652, 9.5478292], [-13.6795449, 9.5472261], [-13.679671, 9.5469854], [-13.6799312, 9.5467659], [-13.680536, 9.5465092], [-13.6808128, 9.5463334], [-13.6808762, 9.5462659], [-13.6809198, 9.5461977], [-13.6809343, 9.5460067], [-13.6809934, 9.5458268], [-13.6810711, 9.5455623], [-13.6817122, 9.5448058], [-13.6824149, 9.5442874], [-13.6826912, 9.5441214], [-13.6830466, 9.5438199], [-13.6831927, 9.5436645], [-13.6833335, 9.5435639], [-13.6835267, 9.543478], [-13.6835893, 9.5434312], [-13.6836635, 9.5433246], [-13.6836849, 9.5432294], [-13.6837749, 9.5430218], [-13.6840712, 9.542424], [-13.6843729, 9.5418672], [-13.684507, 9.5415656], [-13.6849201, 9.540698], [-13.6852902, 9.5401029], [-13.6854646, 9.5399627], [-13.6860439, 9.5406081], [-13.6871195, 9.5396532], [-13.6872133, 9.5396744], [-13.6885169, 9.5407562], [-13.6884392, 9.5408435], [-13.6886671, 9.5410207], [-13.6887208, 9.5409467], [-13.6889381, 9.5411133], [-13.6890159, 9.5410472], [-13.6871811, 9.539476], [-13.6866206, 9.5387935], [-13.6870873, 9.5384602], [-13.6872939, 9.5380502], [-13.6878678, 9.5377672], [-13.6878946, 9.5375689], [-13.6882674, 9.5372435], [-13.6882836, 9.5370954], [-13.6888227, 9.5368785], [-13.6887932, 9.5367145], [-13.6887154, 9.5366113], [-13.6885357, 9.5365002], [-13.6882272, 9.5363283], [-13.6882111, 9.5362701], [-13.6882192, 9.536204], [-13.6884874, 9.5358508], [-13.6885479, 9.5357852], [-13.6886953, 9.5357993], [-13.6890855, 9.5359104], [-13.6891076, 9.5359316], [-13.6891313, 9.5359715], [-13.6892101, 9.5361467], [-13.689343, 9.535958], [-13.6894164, 9.5358283], [-13.689538, 9.5358227], [-13.6897615, 9.5355586], [-13.6898688, 9.5353602], [-13.6899412, 9.5351327], [-13.6899888, 9.5350715], [-13.6902147, 9.5346647], [-13.6903211, 9.5344733], [-13.6904421, 9.5342554], [-13.690533, 9.5341233], [-13.6906819, 9.5342055], [-13.6909878, 9.5341774], [-13.6909962, 9.5341686], [-13.6910073, 9.5341569], [-13.6909897, 9.5341373], [-13.6909305, 9.5340794], [-13.6908968, 9.5339962], [-13.6909093, 9.5339056], [-13.6909769, 9.5338255], [-13.6910609, 9.5337973], [-13.691156, 9.533824], [-13.691215, 9.5338394], [-13.6912574, 9.5338505], [-13.6915722, 9.5335489], [-13.6916336, 9.5336117], [-13.6917087, 9.5335694], [-13.6921755, 9.532797], [-13.6922988, 9.5325907], [-13.6923042, 9.5325113], [-13.6922506, 9.5324822], [-13.6918938, 9.5322442], [-13.6918134, 9.5321965], [-13.6917812, 9.5321436], [-13.6917999, 9.531932], [-13.6918134, 9.5317667], [-13.6918415, 9.5315961], [-13.6918643, 9.5314519], [-13.6918698, 9.5312839], [-13.6918643, 9.5309824], [-13.6918885, 9.5306967], [-13.6918938, 9.5304216], [-13.6919394, 9.5301121], [-13.691983, 9.5297908], [-13.6919864, 9.5295811], [-13.6919873, 9.529274], [-13.6920226, 9.5292366], [-13.6920762, 9.5292287], [-13.6922756, 9.5292448], [-13.6925419, 9.5292878], [-13.6927874, 9.5293728], [-13.6929014, 9.5294549], [-13.6929569, 9.5295793], [-13.692935, 9.5296837], [-13.6929927, 9.5297617], [-13.6931245, 9.5298531], [-13.6931393, 9.5300145], [-13.6931491, 9.5301121], [-13.6932376, 9.5301941], [-13.6933127, 9.5301703], [-13.6933529, 9.530128], [-13.6933076, 9.5300538], [-13.6932825, 9.5299331], [-13.6933366, 9.5298013], [-13.6934136, 9.5296893], [-13.693509, 9.5296461], [-13.6936144, 9.5296477], [-13.6938281, 9.5297333], [-13.6940829, 9.5297878], [-13.6943507, 9.529763], [-13.6965179, 9.5290885], [-13.6966091, 9.5290197], [-13.6966199, 9.5289033], [-13.6965904, 9.5287525], [-13.6956495, 9.5261096], [-13.6956339, 9.5259747], [-13.6957098, 9.5259175], [-13.6958901, 9.5257056], [-13.6960852, 9.5255999], [-13.6962811, 9.525357], [-13.6964222, 9.5251439], [-13.6966919, 9.5248656], [-13.6970961, 9.5242058], [-13.6972491, 9.5239868], [-13.6974435, 9.5239027], [-13.6976042, 9.5238737], [-13.6978382, 9.5237945], [-13.6981496, 9.5235767], [-13.6983505, 9.5234493], [-13.6983539, 9.5228835], [-13.6984046, 9.5226955], [-13.698858, 9.5210131], [-13.6972507, 9.5212472], [-13.6931443, 9.5227637], [-13.6925075, 9.5230715], [-13.691808, 9.523448], [-13.6883586, 9.5258648], [-13.6880614, 9.5260778], [-13.6872869, 9.5269631], [-13.6837248, 9.5316418], [-13.6823478, 9.5334315], [-13.6808669, 9.5353586], [-13.6765651, 9.5409509], [-13.6751881, 9.5427328], [-13.6747383, 9.5432557], [-13.6741245, 9.5437477], [-13.6738611, 9.543927], [-13.6734298, 9.5441857], [-13.6697769, 9.5457308], [-13.6674578, 9.5466113], [-13.6644612, 9.5478534], [-13.6637112, 9.5482164], [-13.6631054, 9.5486995], [-13.6611656, 9.5501955], [-13.660518, 9.5508082], [-13.6601073, 9.5515021], [-13.6572473, 9.5539178], [-13.6552615, 9.5556253], [-13.6542834, 9.5565105], [-13.6535874, 9.557331], [-13.6530175, 9.5580029], [-13.6528852, 9.558205], [-13.6522233, 9.5592393], [-13.6510042, 9.5614629], [-13.6493863, 9.5644968], [-13.6490934, 9.5648339], [-13.6483515, 9.5656874], [-13.6471789, 9.566603], [-13.6443734, 9.5688426]]]}}, {"type": "Feature", "properties": {"name": "Matam", "slug": "conakry-matam"}, "geometry": {"type": "Polygon", "coordinates": [[[-13.6388865, 9.5624819], [-13.6394741, 9.5628157], [-13.639544, 9.5628574], [-13.6398473, 9.5629304], [-13.6400801, 9.5629538], [-13.6407874, 9.5629137], [-13.6409639, 9.5629703], [-13.6416406, 9.5629043], [-13.6426143, 9.5630133], [-13.6427885, 9.5630761], [-13.6433327, 9.5631415], [-13.643376, 9.5631686], [-13.6440248, 9.5635472], [-13.6445693, 9.563602], [-13.6447936, 9.5636636], [-13.6453417, 9.563678], [-13.6455135, 9.5637547], [-13.6455332, 9.563702], [-13.6457316, 9.5638262], [-13.6456654, 9.563829], [-13.6454816, 9.5642772], [-13.6454876, 9.564329], [-13.6455082, 9.5645073], [-13.6454377, 9.5646048], [-13.645399, 9.5647369], [-13.6454496, 9.5649425], [-13.6455399, 9.5650397], [-13.6455428, 9.5650764], [-13.6455531, 9.5651208], [-13.6456293, 9.5651719], [-13.6457735, 9.5651771], [-13.6458208, 9.5653148], [-13.6463185, 9.5658307], [-13.646628, 9.566338], [-13.6468109, 9.5661993], [-13.6469006, 9.5662701], [-13.646944, 9.5663861], [-13.6470416, 9.5664321], [-13.6471789, 9.566603], [-13.6483515, 9.5656874], [-13.6490934, 9.5648339], [-13.6493863, 9.5644968], [-13.6510042, 9.5614629], [-13.6522233, 9.5592393], [-13.6528852, 9.558205], [-13.6530175, 9.5580029], [-13.6535874, 9.557331], [-13.6542834, 9.5565105], [-13.6552615, 9.5556253], [-13.6572473, 9.5539178], [-13.6601073, 9.5515021], [-13.660518, 9.5508082], [-13.6611656, 9.5501955], [-13.6631054, 9.5486995], [-13.6637112, 9.5482164], [-13.6644612, 9.5478534], [-13.6674578, 9.5466113], [-13.6697769, 9.5457308], [-13.6734298, 9.5441857], [-13.6738611, 9.543927], [-13.6741245, 9.5437477], [-13.6747383, 9.5432557], [-13.6751881, 9.5427328], [-13.6765651, 9.5409509], [-13.6808669, 9.5353586], [-13.6823478, 9.5334315], [-13.6837248, 9.5316418], [-13.6872869, 9.5269631], [-13.6880614, 9.5260778], [-13.6883586, 9.5258648], [-13.687961, 9.5252753], [-13.687748, 9.5250095], [-13.6873432, 9.5247593], [-13.6867418, 9.5245115], [-13.6864159, 9.5242856], [-13.6862542, 9.5242075], [-13.6860925, 9.5241884], [-13.6858496, 9.5242169], [-13.6853109, 9.5243419], [-13.685075, 9.5238154], [-13.6848785, 9.5238999], [-13.6847913, 9.523917], [-13.6847457, 9.523925], [-13.6846679, 9.5239276], [-13.6843917, 9.5239435], [-13.6843528, 9.5239422], [-13.684338, 9.5239118], [-13.6843005, 9.5237742], [-13.6842777, 9.5237557], [-13.6842388, 9.5237742], [-13.6839116, 9.5239263], [-13.6834374, 9.5240851], [-13.6828575, 9.5242794], [-13.6828306, 9.5242953], [-13.682828, 9.5243257], [-13.6828588, 9.5243853], [-13.6829071, 9.5244924], [-13.682899, 9.5245241], [-13.6828052, 9.5246088], [-13.6827019, 9.5246929], [-13.6824068, 9.5248402], [-13.6823639, 9.5247298], [-13.6823304, 9.5246088], [-13.6823002, 9.5245354], [-13.6821963, 9.5243386], [-13.682086, 9.5241518], [-13.6818489, 9.5236333], [-13.6817885, 9.5236346], [-13.681753, 9.5235487], [-13.6817323, 9.5235632], [-13.6817463, 9.5236109], [-13.6817081, 9.5236327], [-13.682256, 9.5248832], [-13.6820926, 9.5249517], [-13.6820802, 9.5249575], [-13.6820588, 9.5249699], [-13.6820321, 9.5249748], [-13.6820166, 9.5249659], [-13.6819522, 9.524905], [-13.6819267, 9.5248931], [-13.6819012, 9.5249037], [-13.6817282, 9.5250347], [-13.6815982, 9.5252159], [-13.6815727, 9.5252317], [-13.6815459, 9.5252225], [-13.681405, 9.5251325], [-13.6813769, 9.5251206], [-13.6813568, 9.5251339], [-13.6811583, 9.525409], [-13.6811489, 9.5254354], [-13.6811677, 9.5254619], [-13.6813192, 9.5255399], [-13.6813366, 9.5255545], [-13.681334, 9.5255862], [-13.6812387, 9.5257528], [-13.681232, 9.5257793], [-13.6812562, 9.5258018], [-13.6815607, 9.5259801], [-13.6816236, 9.5259248], [-13.6816907, 9.5259592], [-13.6817309, 9.5260227], [-13.6817068, 9.5260703], [-13.6815968, 9.5261999], [-13.6815351, 9.5262925], [-13.6814386, 9.5264194], [-13.6813286, 9.5265332], [-13.6809918, 9.5264373], [-13.6807895, 9.5266866], [-13.6806151, 9.526967], [-13.6805829, 9.5270569], [-13.6805803, 9.5271098], [-13.6805861, 9.5271242], [-13.6806527, 9.5272686], [-13.6806902, 9.5273717], [-13.6806844, 9.5274388], [-13.680535, 9.5276548], [-13.6801037, 9.5273734], [-13.6799955, 9.5275357], [-13.6799365, 9.527623], [-13.6798561, 9.5277156], [-13.6797461, 9.5278452], [-13.6796764, 9.5279378], [-13.6797005, 9.5279828], [-13.6798695, 9.5281044], [-13.6796093, 9.5285118], [-13.6794806, 9.528689], [-13.6792982, 9.5285673], [-13.6792177, 9.5285118], [-13.6790916, 9.5284086], [-13.6789421, 9.5286312], [-13.6786813, 9.5289535], [-13.6786893, 9.5289826], [-13.6787108, 9.5290038], [-13.6787751, 9.5290752], [-13.6786813, 9.5292789], [-13.6786652, 9.5293054], [-13.6786437, 9.5293107], [-13.6784989, 9.5292419], [-13.678413, 9.5292868], [-13.6783379, 9.5293186], [-13.6781448, 9.5293847], [-13.6779423, 9.5296043], [-13.6779463, 9.5296942], [-13.6779276, 9.5298053], [-13.6778417, 9.5298767], [-13.6777157, 9.5299349], [-13.6776545, 9.5299152], [-13.6773053, 9.529107], [-13.6771846, 9.5291652], [-13.6770237, 9.5292472], [-13.6768493, 9.5293397], [-13.6770934, 9.5297921], [-13.6771578, 9.5298847], [-13.6771578, 9.5299296], [-13.6770773, 9.5300196], [-13.6768144, 9.5302709], [-13.6766911, 9.5304322], [-13.6766663, 9.5305912], [-13.6766605, 9.5306285], [-13.6766428, 9.5307417], [-13.6765945, 9.5309374], [-13.6765999, 9.5309851], [-13.6766213, 9.5310353], [-13.6766642, 9.5310988], [-13.676675, 9.5311279], [-13.6766669, 9.5311596], [-13.6765301, 9.5313474], [-13.6765161, 9.5313713], [-13.6764604, 9.5314665], [-13.6763424, 9.5315749], [-13.6762646, 9.5316146], [-13.6762217, 9.5315934], [-13.6762056, 9.5312073], [-13.6757952, 9.5312496], [-13.6758633, 9.5316783], [-13.6752507, 9.5317284], [-13.675236, 9.5313844], [-13.6744707, 9.5317033], [-13.6742392, 9.531996], [-13.6745511, 9.5324701], [-13.6744912, 9.5325246], [-13.6743923, 9.5325888], [-13.6742868, 9.5327384], [-13.6742703, 9.5328781], [-13.6741974, 9.5329837], [-13.6733005, 9.5329893], [-13.6729307, 9.5331006], [-13.672861, 9.5330391], [-13.6726812, 9.5332282], [-13.6724921, 9.5334437], [-13.6725578, 9.5335641], [-13.6721326, 9.5338498], [-13.6716659, 9.5343696], [-13.6718041, 9.5345322], [-13.6715198, 9.5348946], [-13.6714393, 9.5349846], [-13.6713374, 9.535048], [-13.6712757, 9.535093], [-13.6711979, 9.5351406], [-13.6711442, 9.5351776], [-13.6709511, 9.5352649], [-13.6708063, 9.5353258], [-13.6706348, 9.5354169], [-13.6704163, 9.5355685], [-13.6703798, 9.5356247], [-13.6703503, 9.5357543], [-13.6702913, 9.5358336], [-13.6699507, 9.5360162], [-13.6694437, 9.5363177], [-13.6691138, 9.536368], [-13.6688841, 9.5363974], [-13.6683413, 9.5364473], [-13.6680788, 9.5365717], [-13.6678334, 9.5366809], [-13.6677173, 9.5367266], [-13.6675903, 9.5361902], [-13.6672953, 9.5362278], [-13.6670566, 9.5362701], [-13.667023, 9.5355909], [-13.6669031, 9.5349627], [-13.6668237, 9.5348643], [-13.6661617, 9.5350356], [-13.66546, 9.5352318], [-13.6654124, 9.5352931], [-13.6654238, 9.5354021], [-13.6655211, 9.5357892], [-13.665745, 9.5363838], [-13.6660802, 9.5370425], [-13.6660963, 9.5371403], [-13.6660534, 9.5372541], [-13.6659488, 9.537344], [-13.6656998, 9.5377135], [-13.6656269, 9.5378651], [-13.665584, 9.5379418], [-13.6653835, 9.538036], [-13.6654405, 9.538109], [-13.6655437, 9.5382416], [-13.6650878, 9.5385687], [-13.6648947, 9.5386057], [-13.664833, 9.5386534], [-13.6648223, 9.5387168], [-13.6648679, 9.5387962], [-13.6648625, 9.5388623], [-13.6648142, 9.5389046], [-13.664625, 9.539014], [-13.6643952, 9.5390547], [-13.6641088, 9.539111], [-13.6640337, 9.5391533], [-13.6640069, 9.5392326], [-13.663972, 9.5393702], [-13.6638486, 9.5395236], [-13.6636528, 9.5396294], [-13.663398, 9.5396717], [-13.6632344, 9.5396426], [-13.6631271, 9.5396373], [-13.6630493, 9.5396453], [-13.6629608, 9.5396797], [-13.6629045, 9.5396717], [-13.6628589, 9.5395897], [-13.6626979, 9.5393521], [-13.6622759, 9.5396853], [-13.6626336, 9.5399865], [-13.6624163, 9.5401703], [-13.6623372, 9.540247], [-13.6622103, 9.5403543], [-13.6621232, 9.5404991], [-13.6622527, 9.5405817], [-13.6622474, 9.5406398], [-13.6621562, 9.5409652], [-13.6621159, 9.5411265], [-13.6620167, 9.541362], [-13.6619899, 9.5414757], [-13.6619657, 9.5415683], [-13.6618638, 9.5417481], [-13.6617565, 9.541846], [-13.661652, 9.5419274], [-13.6615634, 9.5419439], [-13.6614829, 9.5421237], [-13.6614856, 9.5421661], [-13.661499, 9.5422057], [-13.6615902, 9.5422428], [-13.6615312, 9.5424015], [-13.6614534, 9.5423856], [-13.6613622, 9.5425893], [-13.6613891, 9.542621], [-13.6614534, 9.5426501], [-13.6613005, 9.5428168], [-13.6612871, 9.5428511], [-13.6613113, 9.542904], [-13.6613596, 9.5429728], [-13.6613381, 9.5431342], [-13.6612764, 9.5432135], [-13.6612174, 9.5432294], [-13.6611078, 9.5432445], [-13.6608675, 9.543363], [-13.6607131, 9.5434463], [-13.6606005, 9.5435495], [-13.6604959, 9.5436976], [-13.6602855, 9.5440497], [-13.6601606, 9.5442292], [-13.659871, 9.5443853], [-13.6596483, 9.5444805], [-13.659431, 9.5445916], [-13.6593103, 9.5446208], [-13.6588356, 9.5445942], [-13.6584118, 9.5445996], [-13.6582294, 9.5446155], [-13.6581647, 9.544505], [-13.65805, 9.5445377], [-13.657988, 9.5446286], [-13.6579761, 9.5447388], [-13.6581212, 9.5450324], [-13.6581074, 9.545153], [-13.6581107, 9.5451788], [-13.6581134, 9.5452125], [-13.6581137, 9.5452631], [-13.6580765, 9.5453137], [-13.6577883, 9.5454251], [-13.6577061, 9.5452093], [-13.6574506, 9.5452823], [-13.6574837, 9.5454669], [-13.6572111, 9.5454875], [-13.657053, 9.5453953], [-13.6568719, 9.5452757], [-13.65639, 9.5453279], [-13.6561883, 9.5453798], [-13.6560005, 9.545438], [-13.6558738, 9.5454946], [-13.6558395, 9.5456364], [-13.6557591, 9.5457423], [-13.655676, 9.5458018], [-13.6555553, 9.5457396], [-13.6554602, 9.5459107], [-13.6553809, 9.5461205], [-13.6550993, 9.546631], [-13.6550456, 9.5466786], [-13.6543375, 9.5470753], [-13.6540371, 9.5472949], [-13.6538494, 9.5473531], [-13.6537179, 9.5473663], [-13.6535758, 9.5473636], [-13.6533505, 9.5472975], [-13.6532217, 9.5472182], [-13.6529401, 9.5468981], [-13.6528543, 9.5468637], [-13.6527336, 9.5468955], [-13.6527014, 9.5470886], [-13.6526739, 9.547138], [-13.6526182, 9.5471547], [-13.6523286, 9.5470568], [-13.6520711, 9.5469748], [-13.6519894, 9.5469698], [-13.6519074, 9.5470277], [-13.651666, 9.5472314], [-13.6514837, 9.5473478], [-13.6513415, 9.5474218], [-13.651033, 9.5474853], [-13.6508775, 9.5475065], [-13.6507461, 9.5475726], [-13.6506173, 9.5476229], [-13.6504, 9.5476678], [-13.6500621, 9.5476493], [-13.64981, 9.547652], [-13.6496517, 9.5475382], [-13.6494398, 9.5473345], [-13.6492977, 9.5472235], [-13.6491823, 9.547234], [-13.6490992, 9.5473002], [-13.6490455, 9.5474139], [-13.6488873, 9.547734], [-13.6487237, 9.5478636], [-13.6485145, 9.5479958], [-13.6483938, 9.5480699], [-13.6482543, 9.5481307], [-13.6481228, 9.5482154], [-13.6480022, 9.5482735], [-13.6478734, 9.5483132], [-13.6478347, 9.548126], [-13.6471787, 9.5483026], [-13.6470902, 9.5483238], [-13.6460483, 9.5488271], [-13.6460227, 9.5489269], [-13.6459824, 9.5494453], [-13.6459342, 9.5494982], [-13.6457045, 9.5495674], [-13.6456499, 9.5495855], [-13.645499, 9.5497931], [-13.645392, 9.5500503], [-13.6450666, 9.55017], [-13.6446284, 9.5502613], [-13.6445555, 9.5503446], [-13.6444885, 9.5504874], [-13.6444294, 9.5506435], [-13.6443839, 9.5507255], [-13.6443543, 9.5507996], [-13.6443409, 9.5508525], [-13.6443195, 9.5509106], [-13.6441961, 9.5511355], [-13.644121, 9.551199], [-13.6440298, 9.5512651], [-13.6438447, 9.5512757], [-13.6436462, 9.5512545], [-13.6434907, 9.5511963], [-13.6433633, 9.5511525], [-13.6432654, 9.5511566], [-13.6431956, 9.5511884], [-13.6431313, 9.5512783], [-13.6430267, 9.5513815], [-13.6429194, 9.5515111], [-13.6429636, 9.5516154], [-13.6429596, 9.5516698], [-13.6428843, 9.5517252], [-13.6427594, 9.5519251], [-13.642737, 9.5519898], [-13.6427316, 9.5520474], [-13.6426887, 9.5523231], [-13.6426431, 9.5523733], [-13.6423326, 9.5526114], [-13.642223, 9.5526522], [-13.6421617, 9.5526998], [-13.6420994, 9.5527324], [-13.6420195, 9.5527739], [-13.6418358, 9.5528918], [-13.6414589, 9.5532171], [-13.6414817, 9.5532634], [-13.641526, 9.5532897], [-13.6416493, 9.5533849], [-13.641652, 9.5534142], [-13.6416265, 9.5534856], [-13.6414897, 9.5536297], [-13.6412172, 9.5538155], [-13.6411679, 9.5538491], [-13.641139, 9.5538691], [-13.6410499, 9.5539471], [-13.6409614, 9.5539709], [-13.640618, 9.5540159], [-13.6405456, 9.5540344], [-13.6402452, 9.5540476], [-13.6399797, 9.5540556], [-13.6395317, 9.5541111], [-13.639454, 9.5541508], [-13.6392246, 9.5542604], [-13.6389068, 9.5543333], [-13.6387579, 9.5543662], [-13.6381772, 9.5545158], [-13.6381564, 9.5546366], [-13.6381155, 9.5546957], [-13.6378554, 9.5548041], [-13.6377346, 9.5547751], [-13.6375657, 9.5548041], [-13.6374584, 9.5548226], [-13.6373913, 9.5548438], [-13.6372063, 9.5548888], [-13.6365438, 9.5550924], [-13.6364901, 9.5551797], [-13.6364982, 9.5552776], [-13.6366484, 9.5554045], [-13.6371633, 9.555677], [-13.637276, 9.555751], [-13.6372894, 9.5559203], [-13.6372438, 9.5561531], [-13.6370346, 9.5566265], [-13.6366618, 9.557629], [-13.6366349, 9.5577057], [-13.6366484, 9.5577744], [-13.6369139, 9.5583669], [-13.6369675, 9.5584965], [-13.6370078, 9.5588324], [-13.6369166, 9.5591101], [-13.6367617, 9.5593009], [-13.6367091, 9.5595233], [-13.6367932, 9.5598454], [-13.6368461, 9.5600607], [-13.6369799, 9.5602905], [-13.6372254, 9.5603873], [-13.6374606, 9.5604093], [-13.6375709, 9.5603729], [-13.6377016, 9.5603837], [-13.6378445, 9.5604391], [-13.637872, 9.5605026], [-13.6377096, 9.5607484], [-13.6376264, 9.5609247], [-13.6376044, 9.5610376], [-13.6376412, 9.5612066], [-13.6377291, 9.5613759], [-13.6379273, 9.5615085], [-13.638007, 9.5615997], [-13.6381271, 9.561769], [-13.6382709, 9.5619681], [-13.638379, 9.5621263], [-13.6387405, 9.5623859], [-13.6388865, 9.5624819]]]}}, {"type": "Feature", "properties": {"name": "Ratoma", "slug": "conakry-ratoma"}, "geometry": {"type": "Polygon", "coordinates": [[[-13.6357784, 9.5780736], [-13.6359655, 9.5778307], [-13.6363333, 9.5773056], [-13.6368611, 9.5767778], [-13.6369722, 9.5765556], [-13.6371389, 9.5764167], [-13.6374167, 9.5759722], [-13.6375556, 9.5758611], [-13.6379167, 9.5754167], [-13.638, 9.57525], [-13.6381389, 9.5751389], [-13.6382239, 9.5749877], [-13.6382778, 9.5748889], [-13.6386944, 9.5744167], [-13.6389167, 9.5740833], [-13.6391667, 9.5738333], [-13.6393611, 9.5735], [-13.6396111, 9.5732778], [-13.6396667, 9.5731389], [-13.6405, 9.5721111], [-13.6417003, 9.5709721], [-13.6422691, 9.5704962], [-13.6429302, 9.5699936], [-13.6443734, 9.5688426], [-13.64513, 9.5692291], [-13.6455, 9.5693333], [-13.6469524, 9.5695759], [-13.6480076, 9.5695491], [-13.6484606, 9.5696058], [-13.6501892, 9.5701028], [-13.6507945, 9.5702934], [-13.6514818, 9.5706389], [-13.6518292, 9.5708583], [-13.6520798, 9.5711222], [-13.6521489, 9.5712147], [-13.6521944, 9.5711667], [-13.6523611, 9.5711111], [-13.6536944, 9.5710833], [-13.6537778, 9.5715], [-13.654, 9.5714722], [-13.6541667, 9.5713611], [-13.6541637, 9.5712586], [-13.6548056, 9.5706944], [-13.6550556, 9.5707222], [-13.6551944, 9.5706944], [-13.6553309, 9.5706215], [-13.6558611, 9.57025], [-13.6561111, 9.5701944], [-13.6562778, 9.5700833], [-13.6563426, 9.5700088], [-13.6564167, 9.5700278], [-13.656483, 9.5699768], [-13.6564594, 9.5698078], [-13.6569576, 9.5696027], [-13.6568679, 9.569891], [-13.6572392, 9.5698531], [-13.6574771, 9.5698856], [-13.6577436, 9.5699421], [-13.6580025, 9.5699555], [-13.6581667, 9.5699722], [-13.6591944, 9.5704167], [-13.6597778, 9.5707778], [-13.6602222, 9.5708611], [-13.6605833, 9.5708333], [-13.661, 9.5711111], [-13.6612778, 9.5711944], [-13.6615556, 9.5712222], [-13.6627204, 9.5720436], [-13.6628481, 9.5723969], [-13.6630602, 9.5728689], [-13.6635268, 9.5728875], [-13.6638755, 9.5729113], [-13.6641517, 9.572992], [-13.6642805, 9.5730144], [-13.6643234, 9.5730092], [-13.664377, 9.5730171], [-13.6646922, 9.5729879], [-13.6649527, 9.5729693], [-13.6652432, 9.573024], [-13.6655331, 9.57305], [-13.665634, 9.5731389], [-13.6658119, 9.5736414], [-13.6661232, 9.5737709], [-13.6661563, 9.5737959], [-13.6661607, 9.5738291], [-13.6661527, 9.5740032], [-13.6661263, 9.5743808], [-13.6661407, 9.5748677], [-13.6662061, 9.5756299], [-13.6662592, 9.576276], [-13.6662831, 9.5770043], [-13.6661032, 9.5784244], [-13.6660563, 9.5794625], [-13.6661768, 9.5800153], [-13.6662036, 9.5802904], [-13.6662707, 9.5804887], [-13.6664531, 9.5808511], [-13.6664987, 9.5809727], [-13.6665416, 9.5810732], [-13.6665925, 9.5811658], [-13.6666596, 9.5813139], [-13.6666891, 9.5814065], [-13.6666971, 9.5815308], [-13.6666245, 9.5818534], [-13.6665335, 9.5821549], [-13.666377, 9.5829237], [-13.6657436, 9.5840764], [-13.6657193, 9.5840936], [-13.6656819, 9.584083], [-13.6655984, 9.5840218], [-13.6655596, 9.5840136], [-13.6655492, 9.5840155], [-13.6655428, 9.5840241], [-13.6655431, 9.5840327], [-13.6655465, 9.5840513], [-13.6655331, 9.5841134], [-13.6654606, 9.5842694], [-13.6651522, 9.5846992], [-13.6647445, 9.5850907], [-13.6645407, 9.5852626], [-13.6643416, 9.5854489], [-13.6641485, 9.5855758], [-13.6637408, 9.5856287], [-13.6633498, 9.5856646], [-13.6631486, 9.5857571], [-13.6630011, 9.5858867], [-13.6628294, 9.5860904], [-13.6627436, 9.5861353], [-13.6626416, 9.5861353], [-13.6625129, 9.5860824], [-13.6623761, 9.5861036], [-13.6622903, 9.5861459], [-13.6621669, 9.5862411], [-13.6619604, 9.5863363], [-13.6616707, 9.5864553], [-13.6614342, 9.5867152], [-13.6612174, 9.5869261], [-13.6611423, 9.5870769], [-13.6610538, 9.587307], [-13.6609975, 9.5874471], [-13.6608794, 9.5875635], [-13.6606622, 9.5876349], [-13.6604986, 9.5876799], [-13.6603618, 9.5877513], [-13.6602169, 9.5878967], [-13.6599675, 9.5881982], [-13.6598602, 9.5883463], [-13.6597556, 9.5884971], [-13.6595947, 9.5887325], [-13.6594847, 9.5888832], [-13.6593774, 9.5890525], [-13.6593103, 9.5891847], [-13.6592594, 9.5892958], [-13.6592352, 9.5893989], [-13.6592446, 9.5894201], [-13.6592366, 9.5894426], [-13.6590649, 9.5897679], [-13.6590341, 9.5897943], [-13.6590005, 9.5898023], [-13.6583219, 9.5900922], [-13.6582921, 9.5900856], [-13.6582693, 9.5900529], [-13.6582857, 9.5898195], [-13.6582643, 9.5897666], [-13.658208, 9.5897507], [-13.6581208, 9.5897877], [-13.658039, 9.5898353], [-13.6579585, 9.5900099], [-13.6579436, 9.5902882], [-13.6578799, 9.5906652], [-13.6578436, 9.5914639], [-13.6577225, 9.5924906], [-13.6577278, 9.5927234], [-13.6576516, 9.5929894], [-13.6576537, 9.5930623], [-13.6576685, 9.5935569], [-13.6576554, 9.5938473], [-13.6576755, 9.5938659], [-13.6576863, 9.5938712], [-13.6579102, 9.5939188], [-13.6579991, 9.593834], [-13.6581263, 9.593879], [-13.6580955, 9.5941053], [-13.6580861, 9.5942475], [-13.6576876, 9.594108], [-13.6576286, 9.5943049], [-13.6576851, 9.5943911], [-13.6579907, 9.5943604], [-13.6580148, 9.594453], [-13.6580014, 9.5947809], [-13.6579983, 9.5948919], [-13.657991, 9.5949763], [-13.6579806, 9.5950202], [-13.6579781, 9.5952821], [-13.6579275, 9.5952846], [-13.6578995, 9.5956563], [-13.6578941, 9.5957013], [-13.6578566, 9.5957198], [-13.6571726, 9.5956484], [-13.6571056, 9.5956695], [-13.657068, 9.5957568], [-13.6570224, 9.5962355], [-13.6569849, 9.5966507], [-13.6570063, 9.596738], [-13.6570466, 9.5967829], [-13.6572182, 9.5968385], [-13.6575486, 9.5968734], [-13.6575642, 9.5970844], [-13.6575469, 9.5972284], [-13.6573638, 9.5972792], [-13.6573228, 9.5979228], [-13.6572658, 9.5981339], [-13.6570231, 9.5983627], [-13.6566964, 9.5986706], [-13.6565993, 9.5986566], [-13.6565144, 9.5985339], [-13.6564726, 9.598338], [-13.6563652, 9.5983524], [-13.6560323, 9.5985625], [-13.6559568, 9.5987664], [-13.6559366, 9.5989788], [-13.6559418, 9.5990747], [-13.6560959, 9.5993375], [-13.6562392, 9.5994065], [-13.6563063, 9.5994911], [-13.6563975, 9.5995863], [-13.6565316, 9.5996894], [-13.6566013, 9.5997212], [-13.6566791, 9.599737], [-13.6568829, 9.5996101], [-13.657113, 9.59948], [-13.6572316, 9.5994593], [-13.6573631, 9.5994699], [-13.6575133, 9.599544], [-13.6575937, 9.5996524], [-13.6576366, 9.5997529], [-13.657646, 9.5999023], [-13.6575784, 9.6002651], [-13.6574998, 9.6005926], [-13.6574538, 9.6008574], [-13.6573517, 9.6010054], [-13.6573349, 9.6012485], [-13.6573591, 9.601382], [-13.6573966, 9.6016174], [-13.6573551, 9.6017482], [-13.6572893, 9.6018104], [-13.657237, 9.601825], [-13.6571834, 9.6018355], [-13.6570841, 9.6018739], [-13.6569285, 9.6019427], [-13.6568373, 9.6020696], [-13.6568159, 9.6021727], [-13.6568266, 9.6022891], [-13.6569259, 9.6025007], [-13.6569366, 9.6025483], [-13.6569071, 9.6026223], [-13.6568212, 9.6027175], [-13.656722, 9.6027532], [-13.656714, 9.6027797], [-13.6567099, 9.6029436], [-13.6567193, 9.6030111], [-13.6567596, 9.6030587], [-13.6569017, 9.6030613], [-13.6569259, 9.6030746], [-13.6569768, 9.6031645], [-13.6569983, 9.6032465], [-13.6569768, 9.6035665], [-13.6569741, 9.6035929], [-13.6569607, 9.6036167], [-13.6568776, 9.6036326], [-13.6567944, 9.6036961], [-13.6567086, 9.6037992], [-13.6566147, 9.6039365], [-13.6561909, 9.6043174], [-13.6558503, 9.6048174], [-13.6556357, 9.6050607], [-13.6554104, 9.6053675], [-13.6552924, 9.605579], [-13.6551556, 9.6057218], [-13.6549732, 9.6060603], [-13.6548659, 9.6063116], [-13.6548257, 9.6063803], [-13.6548029, 9.6065205], [-13.6548525, 9.6066554], [-13.6548672, 9.6067916], [-13.6547828, 9.6069238], [-13.6546648, 9.6077978], [-13.6545762, 9.6081945], [-13.654542391986414, 9.608274845694877], [-13.634510326729789, 9.579657609613985], [-13.6357784, 9.5780736]]]}}, {"type": "Feature", "properties": {"name": "Lambanyi", "slug": "conakry-lambanyi"}, "geometry": {"type": "Polygon", "coordinates": [[[-13.59225, 9.6238373], [-13.59325, 9.6233056], [-13.5953611, 9.6220278], [-13.5966389, 9.6213056], [-13.5991389, 9.6199167], [-13.60025, 9.6190556], [-13.6006389, 9.6188056], [-13.6017008, 9.6182608], [-13.6022222, 9.6178611], [-13.6026377, 9.6176589], [-13.603876, 9.6169143], [-13.6043654, 9.6166213], [-13.6047777, 9.6163133], [-13.6052195, 9.6159193], [-13.6053832, 9.6157395], [-13.6055872, 9.6155232], [-13.6061275, 9.6148145], [-13.6072165, 9.6127387], [-13.6070355, 9.6126284], [-13.6072286, 9.6125609], [-13.6076794, 9.6127416], [-13.6082897, 9.611326], [-13.608712, 9.6105292], [-13.6097238, 9.6087492], [-13.6098707, 9.6086194], [-13.6099036, 9.6084827], [-13.6103657, 9.6076994], [-13.6115273, 9.6060127], [-13.6117578, 9.6055537], [-13.611891, 9.6053827], [-13.6119722, 9.6053889], [-13.6121389, 9.6050833], [-13.6125132, 9.6049619], [-13.6126585, 9.6044363], [-13.6127618, 9.6038641], [-13.613071, 9.6021515], [-13.6131481, 9.6011847], [-13.6131387, 9.599784], [-13.6132344, 9.5991681], [-13.6133479, 9.5987783], [-13.6132563, 9.598674], [-13.6131426, 9.5986939], [-13.6128679, 9.598922], [-13.6135787, 9.5934466], [-13.6137662, 9.5925376], [-13.6140816, 9.5917114], [-13.6148011, 9.5904513], [-13.6165282, 9.5881471], [-13.6181073, 9.5867394], [-13.6190801, 9.586133], [-13.6199361, 9.5857004], [-13.6200843, 9.5856338], [-13.6220709, 9.5849482], [-13.6232228, 9.5844532], [-13.6232778, 9.5843889], [-13.6266215, 9.5827884], [-13.6273056, 9.5825556], [-13.6312466, 9.5815582], [-13.6318324, 9.5813796], [-13.6324804, 9.5811869], [-13.6331502, 9.5808454], [-13.6333698, 9.5807122], [-13.6336047, 9.580548], [-13.6340407, 9.5801687], [-13.6344892, 9.579684], [-13.634510326729789, 9.579657609613985], [-13.654542391986414, 9.608274845694877], [-13.6544126, 9.6085833], [-13.6542544, 9.6088451], [-13.6541015, 9.6090619], [-13.6539272, 9.6091175], [-13.6537045, 9.6091175], [-13.6535583, 9.6091013], [-13.653185, 9.609196], [-13.6528784, 9.609337], [-13.6524197, 9.6095961], [-13.6514455, 9.6101585], [-13.6513503, 9.6099345], [-13.6513068, 9.6099078], [-13.6512898, 9.6103352], [-13.6511926, 9.6103701], [-13.6510545, 9.6104014], [-13.6508828, 9.6105151], [-13.6507072, 9.6106659], [-13.650455, 9.6106817], [-13.6502297, 9.6107426], [-13.6501613, 9.6108391], [-13.6501037, 9.6109621], [-13.6500709, 9.6111833], [-13.650059, 9.6115135], [-13.6499937, 9.6116893], [-13.6498623, 9.611803], [-13.6496115, 9.6120424], [-13.6495578, 9.6121931], [-13.6490428, 9.6128331], [-13.649016, 9.612849], [-13.6489758, 9.6128516], [-13.6487168, 9.6125998], [-13.6482716, 9.6128775], [-13.6479914, 9.6131902], [-13.6480157, 9.6135817], [-13.6480088, 9.6137647], [-13.6480175, 9.6138357], [-13.6483098, 9.6138504], [-13.6483019, 9.6140722], [-13.6480711, 9.6140495], [-13.6480778, 9.6144698], [-13.6481495, 9.6148467], [-13.6482972, 9.6149011], [-13.6480614, 9.6151667], [-13.6477989, 9.6153715], [-13.6474867, 9.6153917], [-13.6469522, 9.6154138], [-13.6468575, 9.6153029], [-13.6466074, 9.6156174], [-13.6462212, 9.6161546], [-13.6460146, 9.6163159], [-13.645783, 9.6164849], [-13.6451617, 9.6166015], [-13.6449498, 9.6165698], [-13.6447647, 9.6165222], [-13.6447277, 9.6164896], [-13.6436632, 9.6160027], [-13.6432895, 9.6158063], [-13.6431707, 9.6157709], [-13.643032, 9.6157791], [-13.642619, 9.615795], [-13.6424956, 9.6158399], [-13.6423896, 9.6159176], [-13.6422093, 9.6160784], [-13.6420584, 9.6161916], [-13.6420205, 9.6161968], [-13.6419833, 9.6161626], [-13.641705, 9.6157646], [-13.6416862, 9.615752], [-13.6416688, 9.6157553], [-13.6416242, 9.6157903], [-13.641596, 9.6158263], [-13.6415588, 9.6158524], [-13.6415464, 9.6158763], [-13.6415548, 9.615908], [-13.6417952, 9.616266], [-13.6420094, 9.6164779], [-13.6425378, 9.6169988], [-13.6430515, 9.6174815], [-13.6430877, 9.6175317], [-13.6431588, 9.6176547], [-13.6431593, 9.6177455], [-13.6432567, 9.6178398], [-13.6433318, 9.6178821], [-13.6434044, 9.617891], [-13.6435598, 9.6178266], [-13.6436449, 9.6178061], [-13.64371, 9.6178239], [-13.643836, 9.6178583], [-13.6439245, 9.6179218], [-13.6440747, 9.6180038], [-13.6444234, 9.6180593], [-13.6449974, 9.6181281], [-13.6453005, 9.6181889], [-13.6453855, 9.6182592], [-13.6454105, 9.618374], [-13.6453863, 9.6185485], [-13.6451951, 9.6187383], [-13.6449036, 9.6189796], [-13.6445146, 9.6191938], [-13.6443376, 9.6193075], [-13.644174, 9.6195878], [-13.6440238, 9.6197597], [-13.6439677, 9.6197877], [-13.6439299, 9.6197729], [-13.6438213, 9.6196473], [-13.6437971, 9.619642], [-13.6437743, 9.6196632], [-13.6436847, 9.6198032], [-13.6436748, 9.6198166], [-13.6435398, 9.6199963], [-13.6435335, 9.620005], [-13.6435128, 9.6200331], [-13.6434793, 9.6203098], [-13.6434632, 9.6203997], [-13.6434196, 9.6205229], [-13.6433371, 9.6206245], [-13.6432325, 9.6206959], [-13.6430221, 9.6207542], [-13.6427336, 9.6208069], [-13.6423045, 9.6209339], [-13.641709, 9.6212935], [-13.6414703, 9.6214707], [-13.6410532, 9.6218601], [-13.6408346, 9.6221397], [-13.640702, 9.622396], [-13.6405423, 9.6227823], [-13.6404377, 9.6230309], [-13.6401736, 9.6234791], [-13.6400407, 9.6239406], [-13.6399737, 9.6241495], [-13.6398369, 9.6245224], [-13.6397859, 9.6246255], [-13.6397296, 9.6247035], [-13.6394976, 9.6248992], [-13.6392915, 9.6251536], [-13.6391385, 9.6252914], [-13.6389652, 9.6254064], [-13.6388176, 9.6254797], [-13.6387854, 9.6254856], [-13.6387412, 9.6254718], [-13.6382611, 9.6252073], [-13.6378574, 9.6249402], [-13.6377528, 9.6248477], [-13.6376938, 9.6247525], [-13.6375945, 9.6246811], [-13.637498, 9.6246229], [-13.6374095, 9.6246097], [-13.6373672, 9.6246153], [-13.637341, 9.6245968], [-13.6372579, 9.624541], [-13.6372539, 9.6244404], [-13.6372163, 9.6243955], [-13.6370527, 9.6243082], [-13.6369177, 9.6242484], [-13.6364573, 9.6245224], [-13.6364305, 9.6245674], [-13.6364412, 9.6246097], [-13.6364734, 9.6246758], [-13.6365726, 9.6247895], [-13.6366182, 9.6249085], [-13.6367309, 9.6252258], [-13.6367689, 9.6255798], [-13.6368128, 9.6259381], [-13.6368328, 9.6261752], [-13.6368213, 9.6263538], [-13.636637, 9.6265983], [-13.6364439, 9.6267464], [-13.6363205, 9.6267649], [-13.6357331, 9.6268945], [-13.6351349, 9.6270029], [-13.6349874, 9.6271193], [-13.6348399, 9.6272859], [-13.6346253, 9.6276772], [-13.6345449, 9.6278359], [-13.6343544, 9.6280554], [-13.6341747, 9.6283066], [-13.6337879, 9.6288498], [-13.633303, 9.6293168], [-13.6331126, 9.6293749], [-13.633016, 9.6294199], [-13.6329972, 9.6294701], [-13.6330294, 9.6295389], [-13.6331796, 9.6296658], [-13.6331953, 9.6297114], [-13.6331949, 9.6297596], [-13.6331786, 9.629805], [-13.6331481, 9.6298426], [-13.6331067, 9.6298683], [-13.6330592, 9.6298792], [-13.6330106, 9.6298741], [-13.6329664, 9.6298536], [-13.6327987, 9.6296896], [-13.6327666, 9.629687], [-13.6327263, 9.6297346], [-13.6326137, 9.629888], [-13.6323305, 9.6301653], [-13.6319351, 9.6304327], [-13.6316186, 9.6307448], [-13.6311331, 9.6312313], [-13.6307871, 9.6315698], [-13.6306691, 9.6316914], [-13.6303848, 9.631977], [-13.6301139, 9.6322679], [-13.6299905, 9.6323869], [-13.6299234, 9.632461], [-13.6298859, 9.6326038], [-13.6298617, 9.6326831], [-13.6297437, 9.6328259], [-13.6295962, 9.6329449], [-13.6293527, 9.6331034], [-13.6289337, 9.6333442], [-13.6286601, 9.6335214], [-13.6283543, 9.6336483], [-13.6281934, 9.6337049], [-13.6278957, 9.6337303], [-13.6276615, 9.6337503], [-13.6274263, 9.6337832], [-13.6271151, 9.6339644], [-13.6265674, 9.6342655], [-13.6262542, 9.6343623], [-13.6258062, 9.6344522], [-13.6253637, 9.634558], [-13.6249318, 9.6345844], [-13.6247414, 9.6346029], [-13.6246582, 9.634632], [-13.6245887, 9.6346887], [-13.6245731, 9.6348165], [-13.6245918, 9.63488], [-13.6246347, 9.634917], [-13.6248305, 9.6350016], [-13.6250639, 9.63511], [-13.6253187, 9.6352317], [-13.6256057, 9.6353189], [-13.62589, 9.6353824], [-13.6263517, 9.6354609], [-13.6264935, 9.6354855], [-13.6266434, 9.6355292], [-13.6268757, 9.6357301], [-13.6268931, 9.6357539], [-13.6268865, 9.6358002], [-13.6267456, 9.6361003], [-13.6267054, 9.6361633], [-13.6266911, 9.6361862], [-13.6265203, 9.6364719], [-13.6264372, 9.6365327], [-13.6263889, 9.6365935], [-13.6262843, 9.6367495], [-13.6261985, 9.6369003], [-13.6261743, 9.6370298], [-13.6260751, 9.637125], [-13.6258069, 9.6373366], [-13.6256111, 9.6375719], [-13.6248963, 9.6383983], [-13.6238676, 9.6392379], [-13.6238328, 9.639296], [-13.623804, 9.6394082], [-13.6238212, 9.6400262], [-13.6240109, 9.6403493], [-13.6235833, 9.6407222], [-13.6223889, 9.6421111], [-13.6219167, 9.6424444], [-13.6215833, 9.6428333], [-13.6212222, 9.6430833], [-13.6206389, 9.64325], [-13.6204167, 9.6434722], [-13.6197222, 9.6437222], [-13.6193889, 9.6437222], [-13.6190833, 9.6438611], [-13.6182778, 9.6438889], [-13.6184722, 9.6445], [-13.6182778, 9.6447778], [-13.6179722, 9.6455556], [-13.6180556, 9.6454722], [-13.6178056, 9.6460556], [-13.6175, 9.6466111], [-13.6170556, 9.64725], [-13.6163056, 9.6486667], [-13.6154444, 9.6493611], [-13.6148333, 9.6500278], [-13.6143333, 9.6504444], [-13.61375, 9.6506944], [-13.6131111, 9.6514167], [-13.6127778, 9.6520556], [-13.6121667, 9.6523611], [-13.6115278, 9.6529444], [-13.611382347875772, 9.653046211251104], [-13.591321702912877, 9.624388147018397], [-13.59225, 9.6238373]]]}}, {"type": "Feature", "properties": {"name": "Sonfonia", "slug": "conakry-sonfonia"}, "geometry": {"type": "Polygon", "coordinates": [[[-13.6109722, 9.6533333], [-13.6104167, 9.6535833], [-13.61, 9.6539722], [-13.6093056, 9.6544167], [-13.6083889, 9.6547778], [-13.6087778, 9.6553056], [-13.6087778, 9.6561667], [-13.6081111, 9.6566667], [-13.6075, 9.6577778], [-13.6054444, 9.6598889], [-13.60475, 9.6607222], [-13.6043333, 9.6613333], [-13.6031111, 9.6628611], [-13.6023611, 9.6634444], [-13.6015, 9.6643611], [-13.5996944, 9.6657222], [-13.599, 9.6664722], [-13.5986667, 9.6669167], [-13.5983675, 9.667002], [-13.5973215, 9.6671011], [-13.5971944, 9.6675833], [-13.5960833, 9.6681667], [-13.5953056, 9.6689444], [-13.5947222, 9.6694444], [-13.5936667, 9.6708889], [-13.5931667, 9.6713056], [-13.593, 9.6703889], [-13.5927875, 9.6704282], [-13.5925449, 9.6697008], [-13.5922839, 9.6707822], [-13.591096, 9.67155], [-13.5909621, 9.6718107], [-13.5900657, 9.6725329], [-13.5898611, 9.6727961], [-13.5894167, 9.6730739], [-13.5887728, 9.6733807], [-13.5885148, 9.6734169], [-13.5882251, 9.673401], [-13.5874444, 9.6733056], [-13.5865762, 9.6735043], [-13.586006, 9.6735797], [-13.5858305, 9.673592], [-13.5860833, 9.6739722], [-13.5863333, 9.6746389], [-13.5863333, 9.6754167], [-13.58625, 9.6760833], [-13.58625, 9.6776111], [-13.5863056, 9.6783333], [-13.5862222, 9.6788333], [-13.5858789, 9.6789658], [-13.584912, 9.6799014], [-13.582711, 9.6813439], [-13.5803653, 9.6817869], [-13.5771592, 9.6821929], [-13.5755131, 9.6836116], [-13.5754952, 9.6863379], [-13.5749808, 9.6886606], [-13.5745488, 9.68942], [-13.5736082, 9.6905054], [-13.572833, 9.6913079], [-13.5723639, 9.6922316], [-13.5711542, 9.6921893], [-13.5692498, 9.6920888], [-13.5689722, 9.6914444], [-13.5687778, 9.6909444], [-13.5686944, 9.6891667], [-13.5681111, 9.6891667], [-13.5675, 9.6890833], [-13.56725, 9.6891667], [-13.5669722, 9.6894444], [-13.5663333, 9.6895556], [-13.5658686, 9.6896349], [-13.5658496, 9.6894241], [-13.5656939, 9.6890806], [-13.5655179, 9.6888483], [-13.56544, 9.6887387], [-13.5653776, 9.6886932], [-13.5651364, 9.6886519], [-13.5648267, 9.6886183], [-13.5645544, 9.6886455], [-13.5643962, 9.688701], [-13.5642808, 9.68882], [-13.5642916, 9.6890659], [-13.564254, 9.6892219], [-13.5640636, 9.6893409], [-13.5636291, 9.6892457], [-13.5633072, 9.6893224], [-13.5630926, 9.6892721], [-13.5630256, 9.6891056], [-13.5628734, 9.6890272], [-13.56274, 9.6890273], [-13.5625402, 9.6893838], [-13.5623584, 9.689574], [-13.5621117, 9.6897806], [-13.5619071, 9.6898485], [-13.561781, 9.6897956], [-13.5616848, 9.6895379], [-13.5615882, 9.6895137], [-13.5614673, 9.6895319], [-13.5610486, 9.6898325], [-13.5603064, 9.6897675], [-13.5598743, 9.6892902], [-13.5593114, 9.688966], [-13.5591339, 9.6886594], [-13.5591293, 9.6885767], [-13.5590453, 9.6884868], [-13.558633, 9.6883876], [-13.5584995, 9.6884287], [-13.5583582, 9.6883952], [-13.5581356, 9.6884693], [-13.5580623, 9.6885452], [-13.5579957, 9.6886133], [-13.5578885, 9.6886508], [-13.5577403, 9.688614], [-13.557648, 9.6885427], [-13.5574011, 9.6881233], [-13.5572719, 9.6878388], [-13.5571248, 9.6877535], [-13.5568867, 9.6872514], [-13.5568077, 9.6871337], [-13.5567045, 9.6870771], [-13.5566724, 9.6869639], [-13.5565483, 9.686911], [-13.5564997, 9.686785], [-13.5565471, 9.6865272], [-13.5568294, 9.6863928], [-13.5567284, 9.6859417], [-13.5564307, 9.685911], [-13.5561669, 9.6860041], [-13.5561048, 9.6861313], [-13.556013, 9.6861276], [-13.5557446, 9.6859837], [-13.5557328, 9.6859103], [-13.55546, 9.685829], [-13.5550877, 9.686034], [-13.5550989, 9.6861807], [-13.5548559, 9.6862661], [-13.5545198, 9.6862876], [-13.554315, 9.6864388], [-13.5542063, 9.6865953], [-13.5539544, 9.6866017], [-13.553866, 9.6867028], [-13.5527243, 9.6868457], [-13.5523741, 9.6867984], [-13.5520721, 9.686874], [-13.5517894, 9.6868552], [-13.5515348, 9.6867244], [-13.551217, 9.6866658], [-13.551026, 9.6867413], [-13.55092, 9.6866671], [-13.5508661, 9.6865251], [-13.5506804, 9.6863104], [-13.5506605, 9.686088], [-13.5504594, 9.6858904], [-13.5499102, 9.6855367], [-13.5494884, 9.6848158], [-13.549376, 9.6847306], [-13.5490154, 9.6846277], [-13.5487286, 9.6843687], [-13.548404, 9.6841702], [-13.5483982, 9.6839812], [-13.5482328, 9.6837742], [-13.5482379, 9.6836293], [-13.5482982, 9.6835003], [-13.5482255, 9.6831327], [-13.5482565, 9.6829823], [-13.5479846, 9.682773], [-13.5475161, 9.6826824], [-13.5476313, 9.6825286], [-13.5476121, 9.682473], [-13.5475411, 9.6824309], [-13.5474664, 9.6824438], [-13.5473647, 9.6823554], [-13.5469893, 9.6824086], [-13.5468597, 9.6825754], [-13.5466314, 9.6830824], [-13.5462898, 9.6832972], [-13.5459336, 9.6829461], [-13.5458139, 9.6825889], [-13.5460313, 9.6822543], [-13.546127, 9.6819828], [-13.5461456, 9.6817521], [-13.5460015, 9.6810907], [-13.5437036, 9.677306], [-13.5437062, 9.6770281], [-13.5415703, 9.6745748], [-13.5414776, 9.6744445], [-13.5423757, 9.673997], [-13.5434271, 9.6731584], [-13.5435511, 9.6729617], [-13.5438991, 9.6717608], [-13.544215, 9.6711428], [-13.5446614, 9.6706996], [-13.5448029, 9.6705784], [-13.5453257, 9.6702399], [-13.5458703, 9.6700786], [-13.546477, 9.6699714], [-13.5466121, 9.669994], [-13.5475206, 9.6701793], [-13.5487091, 9.670468], [-13.5493731, 9.6706226], [-13.5499468, 9.6707958], [-13.5505535, 9.6709299], [-13.5512238, 9.6709934], [-13.5516836, 9.6708785], [-13.5523237, 9.6706934], [-13.5525212, 9.6706713], [-13.5529165, 9.6705766], [-13.5533719, 9.6703961], [-13.5537577, 9.6701827], [-13.5542409, 9.6697466], [-13.5545791, 9.6695647], [-13.5554428, 9.6688152], [-13.5562836, 9.6682453], [-13.5567044, 9.6678333], [-13.5593481, 9.6658511], [-13.5598539, 9.6654096], [-13.5604274, 9.6649797], [-13.5608622, 9.6647568], [-13.5615613, 9.6641871], [-13.561736, 9.663716], [-13.5618774, 9.663216], [-13.561856, 9.6622667], [-13.5653611, 9.6590278], [-13.5666126, 9.6579481], [-13.5674756, 9.6572035], [-13.5712778, 9.6549722], [-13.5730204, 9.6538937], [-13.5738611, 9.6533611], [-13.5770278, 9.6516667], [-13.5785833, 9.6510833], [-13.5791886, 9.6506885], [-13.5798611, 9.65025], [-13.5803889, 9.6498056], [-13.5808889, 9.6493056], [-13.5813056, 9.6488056], [-13.58175, 9.6483889], [-13.5820113, 9.6478781], [-13.5820227, 9.6478559], [-13.5823611, 9.6471944], [-13.5826595, 9.6467568], [-13.5829052, 9.6459942], [-13.5830278, 9.6455], [-13.5830278, 9.6440556], [-13.5825417, 9.6431098], [-13.582772, 9.6430939], [-13.5830947, 9.642865], [-13.5826091, 9.6422356], [-13.5819606, 9.6417891], [-13.5814516, 9.6415889], [-13.5778316, 9.6406899], [-13.5775171, 9.6405335], [-13.5771308, 9.6400631], [-13.5769804, 9.6397553], [-13.5769532, 9.6395063], [-13.5770679, 9.6390354], [-13.5771669, 9.6388261], [-13.5775882, 9.6382716], [-13.5780668, 9.6378926], [-13.5790255, 9.6368314], [-13.5792161, 9.6362614], [-13.579377, 9.635951], [-13.5795342, 9.6354291], [-13.5796755, 9.63489], [-13.579895, 9.6346503], [-13.5801023, 9.6345011], [-13.5807715, 9.6342753], [-13.5816413, 9.6338915], [-13.5826827, 9.6327481], [-13.5829894, 9.632519], [-13.5832221, 9.6323896], [-13.5837022, 9.6319163], [-13.5838001, 9.6316816], [-13.5838363, 9.6308766], [-13.5839965, 9.6305219], [-13.5843334, 9.6300692], [-13.5848441, 9.6296899], [-13.5850531, 9.6292282], [-13.5854086, 9.6290616], [-13.5855591, 9.6291552], [-13.5862381, 9.628554], [-13.5862136, 9.6283306], [-13.586709, 9.6280786], [-13.5870933, 9.627965], [-13.5882289, 9.6270955], [-13.5886454, 9.626735], [-13.5896301, 9.6262646], [-13.5905562, 9.6257276], [-13.5900555, 9.625065], [-13.5908056, 9.6246944], [-13.591321702912877, 9.624388147018397], [-13.611382347875772, 9.653046211251104], [-13.6109722, 9.6533333]]]}}, {"type": "Feature", "properties": {"name": "Gbessia", "slug": "conakry-gbessia"}, "geometry": {"type": "Polygon", "coordinates": [[[-13.6058056, 9.5771944], [-13.6059444, 9.5770833], [-13.6060556, 9.5768333], [-13.6060833, 9.5764722], [-13.60625, 9.5761944], [-13.6065556, 9.57525], [-13.6066667, 9.5750278], [-13.6066944, 9.5744167], [-13.6079167, 9.5738333], [-13.6091177, 9.5727321], [-13.6093104, 9.5727422], [-13.6094615, 9.5727076], [-13.6095527, 9.5726045], [-13.6098719, 9.5722448], [-13.6099228, 9.5721231], [-13.609955, 9.5719829], [-13.6099872, 9.5718137], [-13.6100408, 9.5716259], [-13.6101079, 9.5714831], [-13.6102071, 9.5712873], [-13.6104298, 9.5710758], [-13.610647, 9.5709885], [-13.6108401, 9.5709673], [-13.6109796, 9.5709991], [-13.6110869, 9.5710652], [-13.6112049, 9.5711657], [-13.6113605, 9.5713588], [-13.611515, 9.5715195], [-13.6115938, 9.5715571], [-13.6117414, 9.5715889], [-13.6121692, 9.5715082], [-13.6122899, 9.5714513], [-13.6122952, 9.5714222], [-13.6122727, 9.5713851], [-13.6122563, 9.5712794], [-13.6122737, 9.5712399], [-13.6123046, 9.5712014], [-13.6125071, 9.5710771], [-13.6126037, 9.5710162], [-13.6126828, 9.570962], [-13.6127204, 9.5709144], [-13.6127298, 9.570847], [-13.612711, 9.5707465], [-13.6126989, 9.5706605], [-13.6127016, 9.5706169], [-13.6127217, 9.5705732], [-13.6128598, 9.5704793], [-13.6129832, 9.570441], [-13.6130664, 9.5703511], [-13.6130771, 9.5702162], [-13.6129966, 9.569666], [-13.6129162, 9.5693275], [-13.6128867, 9.5692191], [-13.6128813, 9.5691318], [-13.6130342, 9.5688382], [-13.6130744, 9.5687615], [-13.6132679, 9.5684276], [-13.6133695, 9.5683753], [-13.6135277, 9.5682801], [-13.6136296, 9.5682166], [-13.6136994, 9.5681849], [-13.6137638, 9.5681373], [-13.6138523, 9.5680685], [-13.6139461, 9.568005], [-13.6139703, 9.5679521], [-13.6139569, 9.5677935], [-13.6140132, 9.5677326], [-13.6140776, 9.5675448], [-13.6140642, 9.567447], [-13.6140186, 9.5673941], [-13.6139944, 9.567357], [-13.6139756, 9.5671349], [-13.6139783, 9.5668783], [-13.613973, 9.5667434], [-13.61393, 9.5665662], [-13.6139381, 9.5665001], [-13.614099, 9.5662435], [-13.6141795, 9.5661748], [-13.6143136, 9.566069], [-13.6143807, 9.5660267], [-13.6145255, 9.565942], [-13.6147481, 9.5657489], [-13.6148393, 9.5657066], [-13.6149466, 9.5657172], [-13.6150619, 9.5657595], [-13.6151505, 9.565823], [-13.6153168, 9.5659076], [-13.6154938, 9.5660055], [-13.6156896, 9.5660796], [-13.6159632, 9.5660875], [-13.6163306, 9.5660478], [-13.6165184, 9.5659685], [-13.6166176, 9.5658918], [-13.6166927, 9.5657172], [-13.6167383, 9.5654686], [-13.6168081, 9.5653416], [-13.6169046, 9.5652173], [-13.6169878, 9.5651142], [-13.6172292, 9.5649475], [-13.6176342, 9.5646539], [-13.6178944, 9.5645058], [-13.6182296, 9.5642969], [-13.6183772, 9.5640906], [-13.6184469, 9.5639557], [-13.6185998, 9.5638049], [-13.6188063, 9.5637044], [-13.6189914, 9.5636542], [-13.6192462, 9.5637362], [-13.6195546, 9.5639028], [-13.6196566, 9.5639557], [-13.6197209, 9.5640006], [-13.6197987, 9.5640562], [-13.6199595, 9.5641462], [-13.6200482, 9.5641699], [-13.6202663, 9.5642221], [-13.6204478, 9.5642308], [-13.6208126, 9.5641831], [-13.621003, 9.5640985], [-13.6212203, 9.5639583], [-13.621349, 9.5638816], [-13.62151, 9.5637547], [-13.6216092, 9.5636515], [-13.6216763, 9.5635775], [-13.6218257, 9.5634242], [-13.6220101, 9.5633141], [-13.6222755, 9.5632387], [-13.6225158, 9.5631754], [-13.6225855, 9.563149], [-13.6226821, 9.5631384], [-13.6227813, 9.5631675], [-13.6229181, 9.5631781], [-13.6231555, 9.5630993], [-13.6232668, 9.5630696], [-13.623417, 9.5630326], [-13.6236853, 9.5629612], [-13.6237872, 9.5629427], [-13.6239293, 9.5631728], [-13.6240608, 9.5632177], [-13.6241546, 9.5632482], [-13.6242177, 9.5632244], [-13.6242633, 9.5631781], [-13.6242887, 9.5631437], [-13.6243236, 9.5630987], [-13.6245114, 9.5628422], [-13.6246857, 9.5625089], [-13.624742, 9.5622841], [-13.6247984, 9.5619138], [-13.6247689, 9.5616705], [-13.6247152, 9.5615356], [-13.6246482, 9.5614086], [-13.6243612, 9.5611282], [-13.6243263, 9.5609114], [-13.6242914, 9.5608796], [-13.6241922, 9.5608558], [-13.6241949, 9.5604908], [-13.6242006, 9.5602827], [-13.6243596, 9.5601528], [-13.624506, 9.5600465], [-13.6247894, 9.5599919], [-13.6247689, 9.5599115], [-13.6248789, 9.5598084], [-13.6254466, 9.5595648], [-13.6254824, 9.5595915], [-13.6254473, 9.5597764], [-13.6257245, 9.5597725], [-13.6258847, 9.5595995], [-13.6262075, 9.5594415], [-13.6263069, 9.5594376], [-13.6265928, 9.5592503], [-13.6268583, 9.559007], [-13.6269709, 9.5589567], [-13.627148, 9.5589118], [-13.627266, 9.5589223], [-13.6275154, 9.5591604], [-13.6278319, 9.5593217], [-13.6283334, 9.5594093], [-13.6282316, 9.5597298], [-13.6286974, 9.5598033], [-13.6287761, 9.5594804], [-13.629202, 9.5595151], [-13.6291867, 9.5597596], [-13.6292276, 9.5597708], [-13.6293597, 9.5597901], [-13.6294909, 9.5597952], [-13.6295459, 9.5597793], [-13.6296666, 9.5596973], [-13.6297256, 9.5596206], [-13.6297497, 9.5594778], [-13.62979, 9.5594513], [-13.6302325, 9.5594355], [-13.6305693, 9.5594701], [-13.6306831, 9.5594963], [-13.6307594, 9.5595347], [-13.6312142, 9.5596973], [-13.6313403, 9.5597687], [-13.6315821, 9.5598595], [-13.6321235, 9.5601099], [-13.6323704, 9.5604506], [-13.6327858, 9.5608122], [-13.6329402, 9.5609288], [-13.6331534, 9.5609742], [-13.6332822, 9.5610489], [-13.6336041, 9.5611362], [-13.6339742, 9.5612288], [-13.6343497, 9.5612288], [-13.6345348, 9.5611997], [-13.6350793, 9.5610172], [-13.6352053, 9.5609219], [-13.6352668, 9.5608426], [-13.6353153, 9.5608003], [-13.635664, 9.5606522], [-13.6358061, 9.5605331], [-13.6359054, 9.5604458], [-13.6360636, 9.5603665], [-13.6361575, 9.5602845], [-13.6362138, 9.5602739], [-13.6362648, 9.5602845], [-13.6363238, 9.5603506], [-13.6363882, 9.5604564], [-13.6365062, 9.5605305], [-13.636643, 9.5605754], [-13.6368324, 9.5605703], [-13.6370186, 9.5605635], [-13.6371792, 9.5605663], [-13.6374664, 9.5604723], [-13.6374606, 9.5604093], [-13.6375709, 9.5603729], [-13.6377016, 9.5603837], [-13.6378445, 9.5604391], [-13.637872, 9.5605026], [-13.6377096, 9.5607484], [-13.6376264, 9.5609247], [-13.6376044, 9.5610376], [-13.6376412, 9.5612066], [-13.6377291, 9.5613759], [-13.6379273, 9.5615085], [-13.638007, 9.5615997], [-13.6381271, 9.561769], [-13.6382709, 9.5619681], [-13.638379, 9.5621263], [-13.6387405, 9.5623859], [-13.6388865, 9.5624819], [-13.6394741, 9.5628157], [-13.639544, 9.5628574], [-13.6398473, 9.5629304], [-13.6400801, 9.5629538], [-13.6407874, 9.5629137], [-13.6409639, 9.5629703], [-13.6416406, 9.5629043], [-13.6426143, 9.5630133], [-13.6427885, 9.5630761], [-13.6433327, 9.5631415], [-13.643376, 9.5631686], [-13.6440248, 9.5635472], [-13.6445693, 9.563602], [-13.6447936, 9.5636636], [-13.6453417, 9.563678], [-13.6455135, 9.5637547], [-13.6455332, 9.563702], [-13.6457316, 9.5638262], [-13.6456654, 9.563829], [-13.6454816, 9.5642772], [-13.6454876, 9.564329], [-13.6455082, 9.5645073], [-13.6454377, 9.5646048], [-13.645399, 9.5647369], [-13.6454496, 9.5649425], [-13.6455399, 9.5650397], [-13.6455428, 9.5650764], [-13.6455531, 9.5651208], [-13.6456293, 9.5651719], [-13.6457735, 9.5651771], [-13.6458208, 9.5653148], [-13.6463185, 9.5658307], [-13.646628, 9.566338], [-13.6468109, 9.5661993], [-13.6469006, 9.5662701], [-13.646944, 9.5663861], [-13.6470416, 9.5664321], [-13.6471789, 9.566603], [-13.6443734, 9.5688426], [-13.6429302, 9.5699936], [-13.6422691, 9.5704962], [-13.6417003, 9.5709721], [-13.6405, 9.5721111], [-13.6396667, 9.5731389], [-13.6396111, 9.5732778], [-13.6393611, 9.5735], [-13.6391667, 9.5738333], [-13.6389167, 9.5740833], [-13.6386944, 9.5744167], [-13.6382778, 9.5748889], [-13.6382239, 9.5749877], [-13.6381389, 9.5751389], [-13.638, 9.57525], [-13.6379167, 9.5754167], [-13.6375556, 9.5758611], [-13.6374167, 9.5759722], [-13.6371389, 9.5764167], [-13.6369722, 9.5765556], [-13.6368611, 9.5767778], [-13.6363333, 9.5773056], [-13.6359655, 9.5778307], [-13.6357784, 9.5780736], [-13.6344892, 9.579684], [-13.6340407, 9.5801687], [-13.6336047, 9.580548], [-13.6333698, 9.5807122], [-13.6331502, 9.5808454], [-13.6324804, 9.5811869], [-13.6318324, 9.5813796], [-13.6312466, 9.5815582], [-13.6273056, 9.5825556], [-13.6266215, 9.5827884], [-13.6232778, 9.5843889], [-13.6232228, 9.5844532], [-13.6220709, 9.5849482], [-13.6200843, 9.5856338], [-13.6199361, 9.5857004], [-13.6190801, 9.586133], [-13.6181073, 9.5867394], [-13.6165282, 9.5881471], [-13.6148011, 9.5904513], [-13.6140816, 9.5917114], [-13.6137662, 9.5925376], [-13.6135787, 9.5934466], [-13.613429955653244, 9.594592400219797], [-13.605707747076051, 9.577217430921115], [-13.6058056, 9.5771944]]]}}, {"type": "Feature", "properties": {"name": "Matoto", "slug": "conakry-matoto"}, "geometry": {"type": "Polygon", "coordinates": [[[-13.6128679, 9.598922], [-13.6131426, 9.5986939], [-13.6132563, 9.598674], [-13.6133479, 9.5987783], [-13.6132344, 9.5991681], [-13.6131387, 9.599784], [-13.6131481, 9.6011847], [-13.613071, 9.6021515], [-13.6127618, 9.6038641], [-13.6126585, 9.6044363], [-13.6125132, 9.6049619], [-13.6121389, 9.6050833], [-13.6119722, 9.6053889], [-13.611891, 9.6053827], [-13.6117578, 9.6055537], [-13.6115273, 9.6060127], [-13.6103657, 9.6076994], [-13.6099036, 9.6084827], [-13.6098707, 9.6086194], [-13.6097238, 9.6087492], [-13.608712, 9.6105292], [-13.6082897, 9.611326], [-13.6076794, 9.6127416], [-13.6072286, 9.6125609], [-13.6070355, 9.6126284], [-13.6072165, 9.6127387], [-13.6061275, 9.6148145], [-13.6055872, 9.6155232], [-13.6053832, 9.6157395], [-13.6052195, 9.6159193], [-13.6047777, 9.6163133], [-13.6043654, 9.6166213], [-13.603876, 9.6169143], [-13.6026377, 9.6176589], [-13.6022222, 9.6178611], [-13.6017008, 9.6182608], [-13.6006389, 9.6188056], [-13.60025, 9.6190556], [-13.5991389, 9.6199167], [-13.5966389, 9.6213056], [-13.5953611, 9.6220278], [-13.59325, 9.6233056], [-13.59225, 9.6238373], [-13.5908056, 9.6246944], [-13.5900555, 9.625065], [-13.5905562, 9.6257276], [-13.5896301, 9.6262646], [-13.5886454, 9.626735], [-13.5882289, 9.6270955], [-13.5870933, 9.627965], [-13.586709, 9.6280786], [-13.5862136, 9.6283306], [-13.5862381, 9.628554], [-13.585593533755198, 9.6291247116736], [-13.576627413615375, 9.617169884820502], [-13.5769444, 9.6168056], [-13.57725, 9.6162222], [-13.5771944, 9.6156667], [-13.5773333, 9.6150278], [-13.5781667, 9.6133056], [-13.5785278, 9.6128056], [-13.5787778, 9.6127222], [-13.5793333, 9.6127222], [-13.5796389, 9.6126389], [-13.58, 9.6126389], [-13.5803889, 9.6125278], [-13.5820833, 9.6116944], [-13.5823611, 9.6115], [-13.5830833, 9.6107778], [-13.5835278, 9.61025], [-13.5840278, 9.6097778], [-13.5843889, 9.6093333], [-13.5845556, 9.6092222], [-13.5851944, 9.6084722], [-13.5854444, 9.6081111], [-13.5861111, 9.6073889], [-13.5863889, 9.6069444], [-13.5869444, 9.6062222], [-13.5871111, 9.6059167], [-13.5873611, 9.6056111], [-13.5876667, 9.6050833], [-13.5880556, 9.6046667], [-13.5882778, 9.6043333], [-13.5884722, 9.6041667], [-13.5886667, 9.6038611], [-13.5899722, 9.6031111], [-13.5901944, 9.6028889], [-13.5908333, 9.6025278], [-13.5911111, 9.6024444], [-13.5913611, 9.60225], [-13.5919444, 9.6019722], [-13.5921667, 9.6018056], [-13.5925, 9.6016389], [-13.5937222, 9.6005556], [-13.5945833, 9.5995], [-13.5948333, 9.5991111], [-13.595, 9.59875], [-13.5951667, 9.5985278], [-13.5959542, 9.5970741], [-13.5974157, 9.5950375], [-13.5976142, 9.5948418], [-13.5980111, 9.5950004], [-13.5990036, 9.5946513], [-13.598966, 9.5944979], [-13.5987139, 9.5944874], [-13.5985154, 9.5935776], [-13.5991377, 9.5933819], [-13.598565, 9.5929336], [-13.5979808, 9.592509], [-13.5965359, 9.5907877], [-13.5958104, 9.5896942], [-13.5955, 9.5891111], [-13.5953889, 9.5887222], [-13.5950833, 9.5872778], [-13.5951111, 9.5871111], [-13.5961111, 9.5853611], [-13.5970556, 9.5835556], [-13.5986111, 9.5825278], [-13.5987778, 9.5824722], [-13.5991813, 9.5824598], [-13.5996667, 9.5824444], [-13.5995556, 9.5815833], [-13.5985833, 9.5818056], [-13.5980556, 9.5818056], [-13.5978333, 9.5817222], [-13.5976944, 9.5816111], [-13.5978056, 9.5814167], [-13.5976667, 9.5813056], [-13.5982222, 9.5812778], [-13.5986111, 9.5811389], [-13.5987222, 9.5810556], [-13.5995, 9.5810556], [-13.6, 9.581], [-13.6005556, 9.5808333], [-13.6011944, 9.5804722], [-13.6016111, 9.5800556], [-13.6018056, 9.5796389], [-13.602, 9.5789167], [-13.6021944, 9.5786111], [-13.6025, 9.5783611], [-13.6027778, 9.5782778], [-13.6033056, 9.5782222], [-13.6039722, 9.5780833], [-13.6048611, 9.5774167], [-13.605707747076051, 9.577217430921115], [-13.613429955653244, 9.594592400219797], [-13.6128679, 9.598922]]]}}, {"type": "Feature", "properties": {"name": "Tombolia", "slug": "conakry-tombolia"}, "geometry": {"type": "Polygon", "coordinates": [[[-13.5855591, 9.6291552], [-13.5854086, 9.6290616], [-13.5850531, 9.6292282], [-13.5848441, 9.6296899], [-13.5843334, 9.6300692], [-13.5839965, 9.6305219], [-13.5838363, 9.6308766], [-13.5838001, 9.6316816], [-13.5837022, 9.6319163], [-13.5832221, 9.6323896], [-13.5829894, 9.632519], [-13.5826827, 9.6327481], [-13.5816413, 9.6338915], [-13.5807715, 9.6342753], [-13.5801023, 9.6345011], [-13.579895, 9.6346503], [-13.5796755, 9.63489], [-13.5795342, 9.6354291], [-13.579377, 9.635951], [-13.5792161, 9.6362614], [-13.5790255, 9.6368314], [-13.5780668, 9.6378926], [-13.5775882, 9.6382716], [-13.5771669, 9.6388261], [-13.5770679, 9.6390354], [-13.5769532, 9.6395063], [-13.5769804, 9.6397553], [-13.5771308, 9.6400631], [-13.5775171, 9.6405335], [-13.5778316, 9.6406899], [-13.5814516, 9.6415889], [-13.5819606, 9.6417891], [-13.5826091, 9.6422356], [-13.5830947, 9.642865], [-13.582772, 9.6430939], [-13.5825417, 9.6431098], [-13.5830278, 9.6440556], [-13.5830278, 9.6455], [-13.5829052, 9.6459942], [-13.5826595, 9.6467568], [-13.5823611, 9.6471944], [-13.5820227, 9.6478559], [-13.5820113, 9.6478781], [-13.58175, 9.6483889], [-13.5813056, 9.6488056], [-13.5808889, 9.6493056], [-13.5803889, 9.6498056], [-13.5798611, 9.65025], [-13.5791886, 9.6506885], [-13.5785833, 9.6510833], [-13.5770278, 9.6516667], [-13.5738611, 9.6533611], [-13.5730204, 9.6538937], [-13.5712778, 9.6549722], [-13.5674756, 9.6572035], [-13.5666126, 9.6579481], [-13.5653611, 9.6590278], [-13.561856, 9.6622667], [-13.5618774, 9.663216], [-13.561736, 9.663716], [-13.5615613, 9.6641871], [-13.5608622, 9.6647568], [-13.5604274, 9.6649797], [-13.5598539, 9.6654096], [-13.5593481, 9.6658511], [-13.5567044, 9.6678333], [-13.5562836, 9.6682453], [-13.5554428, 9.6688152], [-13.5545791, 9.6695647], [-13.5542409, 9.6697466], [-13.5537577, 9.6701827], [-13.5533719, 9.6703961], [-13.5529165, 9.6705766], [-13.5525212, 9.6706713], [-13.5523237, 9.6706934], [-13.5516836, 9.6708785], [-13.5512238, 9.6709934], [-13.5505535, 9.6709299], [-13.5499468, 9.6707958], [-13.5493731, 9.6706226], [-13.5487091, 9.670468], [-13.5475206, 9.6701793], [-13.5466121, 9.669994], [-13.546477, 9.6699714], [-13.5458703, 9.6700786], [-13.5453257, 9.6702399], [-13.5448029, 9.6705784], [-13.5446614, 9.6706996], [-13.544215, 9.6711428], [-13.5438991, 9.6717608], [-13.5435511, 9.6729617], [-13.5434271, 9.6731584], [-13.5423757, 9.673997], [-13.5414776, 9.6744445], [-13.5414167, 9.6744722], [-13.5394444, 9.6755278], [-13.5391667, 9.6755833], [-13.5386649, 9.6758855], [-13.5385218, 9.6759225], [-13.5384173, 9.6760753], [-13.5381632, 9.6761028], [-13.5372711, 9.6764708], [-13.5368241, 9.6765716], [-13.5364237, 9.676765], [-13.5359275, 9.6768354], [-13.5347108, 9.6772607], [-13.5342079, 9.6773356], [-13.5339567, 9.6773608], [-13.5337253, 9.6773137], [-13.533385, 9.6773262], [-13.5328431, 9.6772394], [-13.5320958, 9.6772844], [-13.531976, 9.6772574], [-13.5301226, 9.6750357], [-13.5261019, 9.6698946], [-13.5248328, 9.6682207], [-13.5241346, 9.6672083], [-13.5240753, 9.6671475], [-13.5239568, 9.6671478], [-13.5236402, 9.6672158], [-13.5233356, 9.6657719], [-13.5232586, 9.6650162], [-13.5231567, 9.6649268], [-13.5227764, 9.6649314], [-13.5223189, 9.6644121], [-13.5219542, 9.6639174], [-13.5218056, 9.6636667], [-13.5209722, 9.6627222], [-13.5208674, 9.6625357], [-13.5233197, 9.6629337], [-13.524827, 9.661873], [-13.5259764, 9.6605569], [-13.5260983, 9.660053], [-13.5261814, 9.6595292], [-13.5262335, 9.6586932], [-13.5257416, 9.6575398], [-13.5249167, 9.657], [-13.5244109, 9.656504], [-13.5236522, 9.656098], [-13.5223188, 9.6551906], [-13.5215192, 9.6543811], [-13.5213339, 9.6539313], [-13.5212802, 9.6525556], [-13.5215302, 9.651877], [-13.5222575, 9.650775], [-13.5229864, 9.650164], [-13.5234352, 9.6499629], [-13.5239816, 9.6498624], [-13.5263392, 9.6495503], [-13.5268056, 9.6493611], [-13.5271389, 9.6491944], [-13.5278056, 9.6484722], [-13.5284167, 9.6479444], [-13.5288408, 9.6475013], [-13.5290891, 9.6469434], [-13.5293788, 9.646314], [-13.5296953, 9.6458592], [-13.5297757, 9.6456583], [-13.529883, 9.645452], [-13.5300171, 9.645214], [-13.5301513, 9.6449284], [-13.5303122, 9.6446111], [-13.5308325, 9.6439924], [-13.5318571, 9.6431197], [-13.5322487, 9.6428976], [-13.5325491, 9.642612], [-13.5331714, 9.642062], [-13.5335094, 9.6418293], [-13.534137, 9.6412], [-13.5344167, 9.6405], [-13.5347778, 9.6395278], [-13.5353056, 9.6390833], [-13.5364167, 9.6390833], [-13.5376389, 9.6388056], [-13.5389167, 9.6388056], [-13.5401111, 9.6385556], [-13.5408056, 9.6384722], [-13.54175, 9.6382222], [-13.5422778, 9.6382222], [-13.5429444, 9.6381389], [-13.5433889, 9.6379722], [-13.5445833, 9.6376389], [-13.5457778, 9.6371111], [-13.5464722, 9.6368611], [-13.547, 9.6367778], [-13.5475, 9.6365278], [-13.5485278, 9.6361111], [-13.5494722, 9.6359444], [-13.5499167, 9.6359444], [-13.5503333, 9.6357778], [-13.5518056, 9.6356111], [-13.55325, 9.6356111], [-13.5540278, 9.6355278], [-13.5545278, 9.6354444], [-13.5556667, 9.6350833], [-13.5559672, 9.6348738], [-13.5575683, 9.63337], [-13.5578056, 9.6328611], [-13.5580278, 9.632], [-13.5581944, 9.6316111], [-13.5582778, 9.6311944], [-13.5584444, 9.631], [-13.5586111, 9.6306944], [-13.5587778, 9.6305556], [-13.56, 9.6305278], [-13.5603333, 9.6303889], [-13.5608611, 9.6303889], [-13.5619722, 9.6305556], [-13.5622222, 9.6307778], [-13.5623611, 9.6306389], [-13.5626389, 9.6300556], [-13.5629167, 9.62975], [-13.5633889, 9.6289167], [-13.5638889, 9.6284444], [-13.5644167, 9.6281667], [-13.5648333, 9.6275278], [-13.5652778, 9.6269722], [-13.5663889, 9.6259444], [-13.5666944, 9.6255278], [-13.5670278, 9.6253333], [-13.5672759, 9.6250548], [-13.5675985, 9.6247485], [-13.5674167, 9.6233611], [-13.5674444, 9.6223056], [-13.5674167, 9.6212222], [-13.5677222, 9.6210556], [-13.5681389, 9.6210833], [-13.5689722, 9.6212222], [-13.5695556, 9.6215], [-13.5701966, 9.6215], [-13.5703281, 9.6215], [-13.5706389, 9.6215], [-13.5711389, 9.6215556], [-13.5714444, 9.6213889], [-13.57175, 9.6210833], [-13.5728611, 9.62075], [-13.5729982, 9.6206862], [-13.5737778, 9.6201944], [-13.5742778, 9.6197778], [-13.5750833, 9.6189444], [-13.576627413615375, 9.617169884820502], [-13.585593533755198, 9.6291247116736], [-13.5855591, 9.6291552]]]}}, {"type": "Feature", "properties": {"name": "Kassa", "slug": "conakry-kassa"}, "geometry": {"type": "Polygon", "coordinates": [[[-13.720215309530241, 9.488748579739333], [-13.720273092810174, 9.487572374055379], [-13.720445886165402, 9.48640749587514], [-13.720732025501455, 9.48526516361228], [-13.721128755140105, 9.484156378550953], [-13.721632254358061, 9.483091818897421], [-13.722237674182612, 9.482081736943098], [-13.722939184089888, 9.481135860329369], [-13.723730028156004, 9.480263298365095], [-13.724602590120277, 9.47947245429898], [-13.725548466734006, 9.478770944391703], [-13.72655854868833, 9.478165524567153], [-13.727623108341861, 9.477662025349197], [-13.728731893403188, 9.477265295710547], [-13.729874225666048, 9.476979156374494], [-13.731039103846287, 9.476806363019266], [-13.732215309530241, 9.476748579739333], [-13.733391515214196, 9.476806363019266], [-13.734556393394435, 9.476979156374494], [-13.735698725657295, 9.477265295710547], [-13.736807510718622, 9.477662025349197], [-13.737872070372154, 9.478165524567153], [-13.738882152326477, 9.478770944391703], [-13.739828028940206, 9.47947245429898], [-13.74070059090448, 9.480263298365095], [-13.741491434970595, 9.481135860329369], [-13.742192944877871, 9.482081736943098], [-13.742798364702422, 9.483091818897421], [-13.743301863920378, 9.484156378550953], [-13.743698593559028, 9.48526516361228], [-13.74398473289508, 9.48640749587514], [-13.744157526250309, 9.487572374055379], [-13.744215309530242, 9.488748579739333], [-13.744157526250309, 9.489924785423288], [-13.74398473289508, 9.491089663603526], [-13.743698593559028, 9.492231995866387], [-13.743301863920378, 9.493340780927713], [-13.742798364702422, 9.494405340581245], [-13.742192944877871, 9.495415422535569], [-13.741491434970595, 9.496361299149298], [-13.74070059090448, 9.497233861113571], [-13.739828028940206, 9.498024705179686], [-13.738882152326477, 9.498726215086963], [-13.737872070372154, 9.499331634911513], [-13.736807510718622, 9.49983513412947], [-13.735698725657295, 9.50023186376812], [-13.734556393394435, 9.500518003104172], [-13.733391515214196, 9.5006907964594], [-13.732215309530241, 9.500748579739334], [-13.731039103846287, 9.5006907964594], [-13.729874225666048, 9.500518003104172], [-13.728731893403188, 9.50023186376812], [-13.727623108341861, 9.49983513412947], [-13.72655854868833, 9.499331634911513], [-13.725548466734006, 9.498726215086963], [-13.724602590120277, 9.498024705179686], [-13.723730028156004, 9.497233861113571], [-13.722939184089888, 9.496361299149298], [-13.722237674182612, 9.495415422535569], [-13.721632254358061, 9.494405340581245], [-13.721128755140105, 9.493340780927713], [-13.720732025501455, 9.492231995866387], [-13.720445886165402, 9.491089663603526], [-13.720273092810174, 9.489924785423288], [-13.720215309530241, 9.488748579739333]]]}}, {"type": "Feature", "properties": {"name": "Manéah", "slug": "conakry-maneah", "approximatif": true}, "geometry": {"type": "Polygon", "coordinates": [[[-13.5228674, 9.625], [-13.4758674, 9.64], [-13.4608674, 9.68], [-13.4908674, 9.7], [-13.525867400000001, 9.685], [-13.5308674, 9.65], [-13.5228674, 9.625]]]}}, {"type": "Feature", "properties": {"name": "Sanoyah", "slug": "conakry-sanoyah", "approximatif": true}, "geometry": {"type": "Polygon", "coordinates": [[[-13.525867400000001, 9.58], [-13.480867400000001, 9.575], [-13.4608674, 9.61], [-13.4758674, 9.64], [-13.5228674, 9.625], [-13.525867400000001, 9.6], [-13.525867400000001, 9.58]]]}}, {"type": "Feature", "properties": {"name": "Kagbélén", "slug": "conakry-kagbelen", "approximatif": true}, "geometry": {"type": "Polygon", "coordinates": [[[-13.480867400000001, 9.575], [-13.4208674, 9.585], [-13.400867400000001, 9.64], [-13.4308674, 9.69], [-13.4608674, 9.68], [-13.4608674, 9.61], [-13.480867400000001, 9.575]]]}}]}